<?xml version="1.0" encoding="UTF-8"?>
<gpx version="1.1" creator="RunDom Simulator Trophy Route" xmlns="http://www.topografix.com/GPX/1/1">
  <metadata>
    <name>NYC Trophy Long Stem Dense</name>
    <desc>Dense Manhattan trophy outline route with waypoints about every 8 meters.</desc>
  </metadata>
  <trk>
    <name>NYC Trophy Long Stem Dense</name>
    <trkseg>
      <trkpt lat="40.7441065" lon="-73.9956382"><time>2026-06-14T18:00:00Z</time><name>start bottom center - 7th Avenue / West 23rd Street</name></trkpt>
      <trkpt lat="40.7440723" lon="-73.9955570"><time>2026-06-14T18:00:02Z</time></trkpt>
      <trkpt lat="40.7440381" lon="-73.9954759"><time>2026-06-14T18:00:03Z</time></trkpt>
      <trkpt lat="40.7440040" lon="-73.9953947"><time>2026-06-14T18:00:05Z</time></trkpt>
      <trkpt lat="40.7439698" lon="-73.9953136"><time>2026-06-14T18:00:07Z</time></trkpt>
      <trkpt lat="40.7439356" lon="-73.9952324"><time>2026-06-14T18:00:09Z</time></trkpt>
      <trkpt lat="40.7439014" lon="-73.9951513"><time>2026-06-14T18:00:10Z</time></trkpt>
      <trkpt lat="40.7438673" lon="-73.9950701"><time>2026-06-14T18:00:12Z</time></trkpt>
      <trkpt lat="40.7438331" lon="-73.9949890"><time>2026-06-14T18:00:14Z</time></trkpt>
      <trkpt lat="40.7437989" lon="-73.9949078"><time>2026-06-14T18:00:16Z</time></trkpt>
      <trkpt lat="40.7437647" lon="-73.9948267"><time>2026-06-14T18:00:17Z</time></trkpt>
      <trkpt lat="40.7437306" lon="-73.9947455"><time>2026-06-14T18:00:19Z</time></trkpt>
      <trkpt lat="40.7436964" lon="-73.9946644"><time>2026-06-14T18:00:21Z</time></trkpt>
      <trkpt lat="40.7436622" lon="-73.9945832"><time>2026-06-14T18:00:23Z</time></trkpt>
      <trkpt lat="40.7436280" lon="-73.9945021"><time>2026-06-14T18:00:24Z</time></trkpt>
      <trkpt lat="40.7435938" lon="-73.9944209"><time>2026-06-14T18:00:26Z</time></trkpt>
      <trkpt lat="40.7435597" lon="-73.9943398"><time>2026-06-14T18:00:28Z</time></trkpt>
      <trkpt lat="40.7435255" lon="-73.9942586"><time>2026-06-14T18:00:30Z</time></trkpt>
      <trkpt lat="40.7434913" lon="-73.9941775"><time>2026-06-14T18:00:31Z</time></trkpt>
      <trkpt lat="40.7434571" lon="-73.9940963"><time>2026-06-14T18:00:33Z</time></trkpt>
      <trkpt lat="40.7434230" lon="-73.9940152"><time>2026-06-14T18:00:35Z</time></trkpt>
      <trkpt lat="40.7433888" lon="-73.9939340"><time>2026-06-14T18:00:37Z</time></trkpt>
      <trkpt lat="40.7433546" lon="-73.9938529"><time>2026-06-14T18:00:38Z</time></trkpt>
      <trkpt lat="40.7433204" lon="-73.9937717"><time>2026-06-14T18:00:40Z</time></trkpt>
      <trkpt lat="40.7432862" lon="-73.9936906"><time>2026-06-14T18:00:42Z</time></trkpt>
      <trkpt lat="40.7432521" lon="-73.9936094"><time>2026-06-14T18:00:43Z</time></trkpt>
      <trkpt lat="40.7432179" lon="-73.9935283"><time>2026-06-14T18:00:45Z</time></trkpt>
      <trkpt lat="40.7431837" lon="-73.9934471"><time>2026-06-14T18:00:47Z</time></trkpt>
      <trkpt lat="40.7431495" lon="-73.9933660"><time>2026-06-14T18:00:49Z</time></trkpt>
      <trkpt lat="40.7431154" lon="-73.9932848"><time>2026-06-14T18:00:50Z</time></trkpt>
      <trkpt lat="40.7430812" lon="-73.9932037"><time>2026-06-14T18:00:52Z</time></trkpt>
      <trkpt lat="40.7430470" lon="-73.9931225"><time>2026-06-14T18:00:54Z</time></trkpt>
      <trkpt lat="40.7430128" lon="-73.9930414"><time>2026-06-14T18:00:56Z</time></trkpt>
      <trkpt lat="40.7429787" lon="-73.9929602"><time>2026-06-14T18:00:57Z</time></trkpt>
      <trkpt lat="40.7429445" lon="-73.9928791"><time>2026-06-14T18:00:59Z</time></trkpt>
      <trkpt lat="40.7429103" lon="-73.9927979"><time>2026-06-14T18:01:01Z</time><name>base left - 6th Avenue / West 23rd Street</name></trkpt>
      <trkpt lat="40.7429719" lon="-73.9927531"><time>2026-06-14T18:01:03Z</time></trkpt>
      <trkpt lat="40.7430334" lon="-73.9927083"><time>2026-06-14T18:01:04Z</time></trkpt>
      <trkpt lat="40.7430950" lon="-73.9926634"><time>2026-06-14T18:01:06Z</time></trkpt>
      <trkpt lat="40.7431565" lon="-73.9926186"><time>2026-06-14T18:01:08Z</time></trkpt>
      <trkpt lat="40.7432181" lon="-73.9925738"><time>2026-06-14T18:01:10Z</time></trkpt>
      <trkpt lat="40.7432796" lon="-73.9925290"><time>2026-06-14T18:01:11Z</time></trkpt>
      <trkpt lat="40.7433412" lon="-73.9924842"><time>2026-06-14T18:01:13Z</time></trkpt>
      <trkpt lat="40.7434028" lon="-73.9924393"><time>2026-06-14T18:01:15Z</time></trkpt>
      <trkpt lat="40.7434643" lon="-73.9923945"><time>2026-06-14T18:01:16Z</time></trkpt>
      <trkpt lat="40.7435259" lon="-73.9923497"><time>2026-06-14T18:01:18Z</time></trkpt>
      <trkpt lat="40.7435874" lon="-73.9923049"><time>2026-06-14T18:01:20Z</time></trkpt>
      <trkpt lat="40.7436490" lon="-73.9922601"><time>2026-06-14T18:01:22Z</time></trkpt>
      <trkpt lat="40.7437106" lon="-73.9922152"><time>2026-06-14T18:01:23Z</time></trkpt>
      <trkpt lat="40.7437721" lon="-73.9921704"><time>2026-06-14T18:01:25Z</time></trkpt>
      <trkpt lat="40.7438337" lon="-73.9921256"><time>2026-06-14T18:01:27Z</time></trkpt>
      <trkpt lat="40.7438952" lon="-73.9920808"><time>2026-06-14T18:01:29Z</time></trkpt>
      <trkpt lat="40.7439568" lon="-73.9920360"><time>2026-06-14T18:01:30Z</time></trkpt>
      <trkpt lat="40.7440183" lon="-73.9919912"><time>2026-06-14T18:01:32Z</time></trkpt>
      <trkpt lat="40.7440799" lon="-73.9919463"><time>2026-06-14T18:01:34Z</time></trkpt>
      <trkpt lat="40.7441415" lon="-73.9919015"><time>2026-06-14T18:01:36Z</time></trkpt>
      <trkpt lat="40.7442030" lon="-73.9918567"><time>2026-06-14T18:01:37Z</time></trkpt>
      <trkpt lat="40.7442646" lon="-73.9918119"><time>2026-06-14T18:01:39Z</time></trkpt>
      <trkpt lat="40.7443261" lon="-73.9917671"><time>2026-06-14T18:01:41Z</time></trkpt>
      <trkpt lat="40.7443877" lon="-73.9917222"><time>2026-06-14T18:01:43Z</time></trkpt>
      <trkpt lat="40.7444493" lon="-73.9916774"><time>2026-06-14T18:01:44Z</time></trkpt>
      <trkpt lat="40.7445108" lon="-73.9916326"><time>2026-06-14T18:01:46Z</time></trkpt>
      <trkpt lat="40.7445724" lon="-73.9915878"><time>2026-06-14T18:01:48Z</time></trkpt>
      <trkpt lat="40.7446339" lon="-73.9915430"><time>2026-06-14T18:01:49Z</time></trkpt>
      <trkpt lat="40.7446955" lon="-73.9914981"><time>2026-06-14T18:01:51Z</time></trkpt>
      <trkpt lat="40.7447570" lon="-73.9914533"><time>2026-06-14T18:01:53Z</time></trkpt>
      <trkpt lat="40.7448186" lon="-73.9914085"><time>2026-06-14T18:01:55Z</time><name>base up left - 6th Avenue / West 26th Street</name></trkpt>
      <trkpt lat="40.7448529" lon="-73.9914898"><time>2026-06-14T18:01:56Z</time></trkpt>
      <trkpt lat="40.7448871" lon="-73.9915710"><time>2026-06-14T18:01:58Z</time></trkpt>
      <trkpt lat="40.7449214" lon="-73.9916523"><time>2026-06-14T18:02:00Z</time></trkpt>
      <trkpt lat="40.7449556" lon="-73.9917335"><time>2026-06-14T18:02:02Z</time></trkpt>
      <trkpt lat="40.7449899" lon="-73.9918148"><time>2026-06-14T18:02:03Z</time></trkpt>
      <trkpt lat="40.7450241" lon="-73.9918960"><time>2026-06-14T18:02:05Z</time></trkpt>
      <trkpt lat="40.7450584" lon="-73.9919773"><time>2026-06-14T18:02:07Z</time></trkpt>
      <trkpt lat="40.7450927" lon="-73.9920586"><time>2026-06-14T18:02:09Z</time></trkpt>
      <trkpt lat="40.7451269" lon="-73.9921398"><time>2026-06-14T18:02:10Z</time></trkpt>
      <trkpt lat="40.7451612" lon="-73.9922211"><time>2026-06-14T18:02:12Z</time></trkpt>
      <trkpt lat="40.7451954" lon="-73.9923023"><time>2026-06-14T18:02:14Z</time></trkpt>
      <trkpt lat="40.7452297" lon="-73.9923836"><time>2026-06-14T18:02:16Z</time></trkpt>
      <trkpt lat="40.7452639" lon="-73.9924648"><time>2026-06-14T18:02:17Z</time></trkpt>
      <trkpt lat="40.7452982" lon="-73.9925461"><time>2026-06-14T18:02:19Z</time></trkpt>
      <trkpt lat="40.7453325" lon="-73.9926274"><time>2026-06-14T18:02:21Z</time></trkpt>
      <trkpt lat="40.7453667" lon="-73.9927086"><time>2026-06-14T18:02:23Z</time></trkpt>
      <trkpt lat="40.7454010" lon="-73.9927899"><time>2026-06-14T18:02:24Z</time></trkpt>
      <trkpt lat="40.7454352" lon="-73.9928711"><time>2026-06-14T18:02:26Z</time></trkpt>
      <trkpt lat="40.7454695" lon="-73.9929524"><time>2026-06-14T18:02:28Z</time></trkpt>
      <trkpt lat="40.7455037" lon="-73.9930336"><time>2026-06-14T18:02:30Z</time></trkpt>
      <trkpt lat="40.7455380" lon="-73.9931149"><time>2026-06-14T18:02:31Z</time></trkpt>
      <trkpt lat="40.7455723" lon="-73.9931962"><time>2026-06-14T18:02:33Z</time></trkpt>
      <trkpt lat="40.7456065" lon="-73.9932774"><time>2026-06-14T18:02:35Z</time></trkpt>
      <trkpt lat="40.7456408" lon="-73.9933587"><time>2026-06-14T18:02:36Z</time></trkpt>
      <trkpt lat="40.7456750" lon="-73.9934399"><time>2026-06-14T18:02:38Z</time></trkpt>
      <trkpt lat="40.7457093" lon="-73.9935212"><time>2026-06-14T18:02:40Z</time></trkpt>
      <trkpt lat="40.7457435" lon="-73.9936024"><time>2026-06-14T18:02:42Z</time></trkpt>
      <trkpt lat="40.7457778" lon="-73.9936837"><time>2026-06-14T18:02:43Z</time></trkpt>
      <trkpt lat="40.7458121" lon="-73.9937650"><time>2026-06-14T18:02:45Z</time></trkpt>
      <trkpt lat="40.7458463" lon="-73.9938462"><time>2026-06-14T18:02:47Z</time></trkpt>
      <trkpt lat="40.7458806" lon="-73.9939275"><time>2026-06-14T18:02:49Z</time></trkpt>
      <trkpt lat="40.7459148" lon="-73.9940087"><time>2026-06-14T18:02:50Z</time></trkpt>
      <trkpt lat="40.7459491" lon="-73.9940900"><time>2026-06-14T18:02:52Z</time></trkpt>
      <trkpt lat="40.7459833" lon="-73.9941712"><time>2026-06-14T18:02:54Z</time></trkpt>
      <trkpt lat="40.7460176" lon="-73.9942525"><time>2026-06-14T18:02:56Z</time><name>inner base right - 7th Avenue / West 26th Street</name></trkpt>
      <trkpt lat="40.7460803" lon="-73.9942068"><time>2026-06-14T18:02:57Z</time></trkpt>
      <trkpt lat="40.7461430" lon="-73.9941611"><time>2026-06-14T18:02:59Z</time></trkpt>
      <trkpt lat="40.7462056" lon="-73.9941154"><time>2026-06-14T18:03:01Z</time></trkpt>
      <trkpt lat="40.7462683" lon="-73.9940697"><time>2026-06-14T18:03:03Z</time></trkpt>
      <trkpt lat="40.7463310" lon="-73.9940239"><time>2026-06-14T18:03:04Z</time></trkpt>
      <trkpt lat="40.7463937" lon="-73.9939782"><time>2026-06-14T18:03:06Z</time></trkpt>
      <trkpt lat="40.7464563" lon="-73.9939325"><time>2026-06-14T18:03:08Z</time></trkpt>
      <trkpt lat="40.7465190" lon="-73.9938868"><time>2026-06-14T18:03:10Z</time></trkpt>
      <trkpt lat="40.7465817" lon="-73.9938411"><time>2026-06-14T18:03:12Z</time></trkpt>
      <trkpt lat="40.7466444" lon="-73.9937954"><time>2026-06-14T18:03:13Z</time></trkpt>
      <trkpt lat="40.7467070" lon="-73.9937497"><time>2026-06-14T18:03:15Z</time></trkpt>
      <trkpt lat="40.7467697" lon="-73.9937040"><time>2026-06-14T18:03:17Z</time></trkpt>
      <trkpt lat="40.7468324" lon="-73.9936583"><time>2026-06-14T18:03:19Z</time></trkpt>
      <trkpt lat="40.7468951" lon="-73.9936126"><time>2026-06-14T18:03:20Z</time></trkpt>
      <trkpt lat="40.7469577" lon="-73.9935668"><time>2026-06-14T18:03:22Z</time></trkpt>
      <trkpt lat="40.7470204" lon="-73.9935211"><time>2026-06-14T18:03:24Z</time></trkpt>
      <trkpt lat="40.7470831" lon="-73.9934754"><time>2026-06-14T18:03:26Z</time></trkpt>
      <trkpt lat="40.7471458" lon="-73.9934297"><time>2026-06-14T18:03:27Z</time></trkpt>
      <trkpt lat="40.7472084" lon="-73.9933840"><time>2026-06-14T18:03:29Z</time></trkpt>
      <trkpt lat="40.7472711" lon="-73.9933383"><time>2026-06-14T18:03:31Z</time></trkpt>
      <trkpt lat="40.7473338" lon="-73.9932926"><time>2026-06-14T18:03:33Z</time></trkpt>
      <trkpt lat="40.7473965" lon="-73.9932469"><time>2026-06-14T18:03:35Z</time></trkpt>
      <trkpt lat="40.7474591" lon="-73.9932012"><time>2026-06-14T18:03:36Z</time></trkpt>
      <trkpt lat="40.7475218" lon="-73.9931555"><time>2026-06-14T18:03:38Z</time></trkpt>
      <trkpt lat="40.7475845" lon="-73.9931097"><time>2026-06-14T18:03:40Z</time></trkpt>
      <trkpt lat="40.7476472" lon="-73.9930640"><time>2026-06-14T18:03:42Z</time></trkpt>
      <trkpt lat="40.7477098" lon="-73.9930183"><time>2026-06-14T18:03:43Z</time></trkpt>
      <trkpt lat="40.7477725" lon="-73.9929726"><time>2026-06-14T18:03:45Z</time></trkpt>
      <trkpt lat="40.7478352" lon="-73.9929269"><time>2026-06-14T18:03:47Z</time></trkpt>
      <trkpt lat="40.7478979" lon="-73.9928812"><time>2026-06-14T18:03:49Z</time></trkpt>
      <trkpt lat="40.7479605" lon="-73.9928355"><time>2026-06-14T18:03:50Z</time></trkpt>
      <trkpt lat="40.7480232" lon="-73.9927898"><time>2026-06-14T18:03:52Z</time></trkpt>
      <trkpt lat="40.7480859" lon="-73.9927441"><time>2026-06-14T18:03:54Z</time></trkpt>
      <trkpt lat="40.7481486" lon="-73.9926984"><time>2026-06-14T18:03:56Z</time></trkpt>
      <trkpt lat="40.7482112" lon="-73.9926526"><time>2026-06-14T18:03:58Z</time></trkpt>
      <trkpt lat="40.7482739" lon="-73.9926069"><time>2026-06-14T18:03:59Z</time></trkpt>
      <trkpt lat="40.7483366" lon="-73.9925612"><time>2026-06-14T18:04:01Z</time></trkpt>
      <trkpt lat="40.7483993" lon="-73.9925155"><time>2026-06-14T18:04:03Z</time></trkpt>
      <trkpt lat="40.7484619" lon="-73.9924698"><time>2026-06-14T18:04:05Z</time></trkpt>
      <trkpt lat="40.7485246" lon="-73.9924241"><time>2026-06-14T18:04:06Z</time></trkpt>
      <trkpt lat="40.7485873" lon="-73.9923784"><time>2026-06-14T18:04:08Z</time></trkpt>
      <trkpt lat="40.7486500" lon="-73.9923327"><time>2026-06-14T18:04:10Z</time></trkpt>
      <trkpt lat="40.7487126" lon="-73.9922870"><time>2026-06-14T18:04:12Z</time></trkpt>
      <trkpt lat="40.7487753" lon="-73.9922413"><time>2026-06-14T18:04:13Z</time></trkpt>
      <trkpt lat="40.7488380" lon="-73.9921955"><time>2026-06-14T18:04:15Z</time></trkpt>
      <trkpt lat="40.7489007" lon="-73.9921498"><time>2026-06-14T18:04:17Z</time></trkpt>
      <trkpt lat="40.7489633" lon="-73.9921041"><time>2026-06-14T18:04:19Z</time></trkpt>
      <trkpt lat="40.7490260" lon="-73.9920584"><time>2026-06-14T18:04:21Z</time></trkpt>
      <trkpt lat="40.7490887" lon="-73.9920127"><time>2026-06-14T18:04:22Z</time></trkpt>
      <trkpt lat="40.7491514" lon="-73.9919670"><time>2026-06-14T18:04:24Z</time></trkpt>
      <trkpt lat="40.7492140" lon="-73.9919213"><time>2026-06-14T18:04:26Z</time></trkpt>
      <trkpt lat="40.7492767" lon="-73.9918756"><time>2026-06-14T18:04:28Z</time></trkpt>
      <trkpt lat="40.7493394" lon="-73.9918299"><time>2026-06-14T18:04:29Z</time></trkpt>
      <trkpt lat="40.7494021" lon="-73.9917842"><time>2026-06-14T18:04:31Z</time></trkpt>
      <trkpt lat="40.7494647" lon="-73.9917384"><time>2026-06-14T18:04:33Z</time></trkpt>
      <trkpt lat="40.7495274" lon="-73.9916927"><time>2026-06-14T18:04:35Z</time></trkpt>
      <trkpt lat="40.7495901" lon="-73.9916470"><time>2026-06-14T18:04:36Z</time></trkpt>
      <trkpt lat="40.7496528" lon="-73.9916013"><time>2026-06-14T18:04:38Z</time></trkpt>
      <trkpt lat="40.7497154" lon="-73.9915556"><time>2026-06-14T18:04:40Z</time></trkpt>
      <trkpt lat="40.7497781" lon="-73.9915099"><time>2026-06-14T18:04:42Z</time></trkpt>
      <trkpt lat="40.7498408" lon="-73.9914642"><time>2026-06-14T18:04:44Z</time></trkpt>
      <trkpt lat="40.7499035" lon="-73.9914185"><time>2026-06-14T18:04:45Z</time></trkpt>
      <trkpt lat="40.7499661" lon="-73.9913728"><time>2026-06-14T18:04:47Z</time></trkpt>
      <trkpt lat="40.7500288" lon="-73.9913271"><time>2026-06-14T18:04:49Z</time></trkpt>
      <trkpt lat="40.7500915" lon="-73.9912813"><time>2026-06-14T18:04:51Z</time></trkpt>
      <trkpt lat="40.7501542" lon="-73.9912356"><time>2026-06-14T18:04:52Z</time></trkpt>
      <trkpt lat="40.7502168" lon="-73.9911899"><time>2026-06-14T18:04:54Z</time></trkpt>
      <trkpt lat="40.7502795" lon="-73.9911442"><time>2026-06-14T18:04:56Z</time></trkpt>
      <trkpt lat="40.7503422" lon="-73.9910985"><time>2026-06-14T18:04:58Z</time><name>long stem left edge - 7th Avenue / West 33rd Street</name></trkpt>
      <trkpt lat="40.7503073" lon="-73.9910167"><time>2026-06-14T18:04:59Z</time></trkpt>
      <trkpt lat="40.7502725" lon="-73.9909349"><time>2026-06-14T18:05:01Z</time></trkpt>
      <trkpt lat="40.7502376" lon="-73.9908531"><time>2026-06-14T18:05:03Z</time></trkpt>
      <trkpt lat="40.7502027" lon="-73.9907713"><time>2026-06-14T18:05:05Z</time></trkpt>
      <trkpt lat="40.7501678" lon="-73.9906895"><time>2026-06-14T18:05:06Z</time></trkpt>
      <trkpt lat="40.7501330" lon="-73.9906077"><time>2026-06-14T18:05:08Z</time></trkpt>
      <trkpt lat="40.7500981" lon="-73.9905259"><time>2026-06-14T18:05:10Z</time></trkpt>
      <trkpt lat="40.7500632" lon="-73.9904441"><time>2026-06-14T18:05:12Z</time></trkpt>
      <trkpt lat="40.7500284" lon="-73.9903622"><time>2026-06-14T18:05:14Z</time></trkpt>
      <trkpt lat="40.7499935" lon="-73.9902804"><time>2026-06-14T18:05:15Z</time></trkpt>
      <trkpt lat="40.7499586" lon="-73.9901986"><time>2026-06-14T18:05:17Z</time></trkpt>
      <trkpt lat="40.7499237" lon="-73.9901168"><time>2026-06-14T18:05:19Z</time></trkpt>
      <trkpt lat="40.7498889" lon="-73.9900350"><time>2026-06-14T18:05:21Z</time></trkpt>
      <trkpt lat="40.7498540" lon="-73.9899532"><time>2026-06-14T18:05:22Z</time></trkpt>
      <trkpt lat="40.7498191" lon="-73.9898714"><time>2026-06-14T18:05:24Z</time></trkpt>
      <trkpt lat="40.7497843" lon="-73.9897896"><time>2026-06-14T18:05:26Z</time></trkpt>
      <trkpt lat="40.7497494" lon="-73.9897078"><time>2026-06-14T18:05:28Z</time></trkpt>
      <trkpt lat="40.7497145" lon="-73.9896260"><time>2026-06-14T18:05:29Z</time></trkpt>
      <trkpt lat="40.7496796" lon="-73.9895442"><time>2026-06-14T18:05:31Z</time></trkpt>
      <trkpt lat="40.7496448" lon="-73.9894624"><time>2026-06-14T18:05:33Z</time></trkpt>
      <trkpt lat="40.7496099" lon="-73.9893806"><time>2026-06-14T18:05:35Z</time></trkpt>
      <trkpt lat="40.7495750" lon="-73.9892988"><time>2026-06-14T18:05:36Z</time></trkpt>
      <trkpt lat="40.7495402" lon="-73.9892170"><time>2026-06-14T18:05:38Z</time></trkpt>
      <trkpt lat="40.7495053" lon="-73.9891352"><time>2026-06-14T18:05:40Z</time></trkpt>
      <trkpt lat="40.7494704" lon="-73.9890534"><time>2026-06-14T18:05:42Z</time></trkpt>
      <trkpt lat="40.7494355" lon="-73.9889716"><time>2026-06-14T18:05:43Z</time></trkpt>
      <trkpt lat="40.7494007" lon="-73.9888897"><time>2026-06-14T18:05:45Z</time></trkpt>
      <trkpt lat="40.7493658" lon="-73.9888079"><time>2026-06-14T18:05:47Z</time></trkpt>
      <trkpt lat="40.7493309" lon="-73.9887261"><time>2026-06-14T18:05:49Z</time></trkpt>
      <trkpt lat="40.7492961" lon="-73.9886443"><time>2026-06-14T18:05:50Z</time></trkpt>
      <trkpt lat="40.7492612" lon="-73.9885625"><time>2026-06-14T18:05:52Z</time></trkpt>
      <trkpt lat="40.7492263" lon="-73.9884807"><time>2026-06-14T18:05:54Z</time></trkpt>
      <trkpt lat="40.7491914" lon="-73.9883989"><time>2026-06-14T18:05:56Z</time></trkpt>
      <trkpt lat="40.7491566" lon="-73.9883171"><time>2026-06-14T18:05:57Z</time></trkpt>
      <trkpt lat="40.7491217" lon="-73.9882353"><time>2026-06-14T18:05:59Z</time><name>cup neck left - 6th Avenue / West 33rd Street</name></trkpt>
      <trkpt lat="40.7491821" lon="-73.9881897"><time>2026-06-14T18:06:01Z</time></trkpt>
      <trkpt lat="40.7492426" lon="-73.9881442"><time>2026-06-14T18:06:03Z</time></trkpt>
      <trkpt lat="40.7493030" lon="-73.9880986"><time>2026-06-14T18:06:04Z</time></trkpt>
      <trkpt lat="40.7493634" lon="-73.9880530"><time>2026-06-14T18:06:06Z</time></trkpt>
      <trkpt lat="40.7494238" lon="-73.9880074"><time>2026-06-14T18:06:08Z</time></trkpt>
      <trkpt lat="40.7494843" lon="-73.9879619"><time>2026-06-14T18:06:10Z</time></trkpt>
      <trkpt lat="40.7495447" lon="-73.9879163"><time>2026-06-14T18:06:11Z</time></trkpt>
      <trkpt lat="40.7496051" lon="-73.9878707"><time>2026-06-14T18:06:13Z</time></trkpt>
      <trkpt lat="40.7496655" lon="-73.9878251"><time>2026-06-14T18:06:15Z</time></trkpt>
      <trkpt lat="40.7497260" lon="-73.9877796"><time>2026-06-14T18:06:16Z</time></trkpt>
      <trkpt lat="40.7497864" lon="-73.9877340"><time>2026-06-14T18:06:18Z</time></trkpt>
      <trkpt lat="40.7498468" lon="-73.9876884"><time>2026-06-14T18:06:20Z</time></trkpt>
      <trkpt lat="40.7499073" lon="-73.9876429"><time>2026-06-14T18:06:22Z</time></trkpt>
      <trkpt lat="40.7499677" lon="-73.9875973"><time>2026-06-14T18:06:23Z</time></trkpt>
      <trkpt lat="40.7500281" lon="-73.9875517"><time>2026-06-14T18:06:25Z</time></trkpt>
      <trkpt lat="40.7500885" lon="-73.9875061"><time>2026-06-14T18:06:27Z</time></trkpt>
      <trkpt lat="40.7501490" lon="-73.9874606"><time>2026-06-14T18:06:28Z</time></trkpt>
      <trkpt lat="40.7502094" lon="-73.9874150"><time>2026-06-14T18:06:30Z</time></trkpt>
      <trkpt lat="40.7502698" lon="-73.9873694"><time>2026-06-14T18:06:32Z</time></trkpt>
      <trkpt lat="40.7503302" lon="-73.9873238"><time>2026-06-14T18:06:34Z</time></trkpt>
      <trkpt lat="40.7503907" lon="-73.9872783"><time>2026-06-14T18:06:35Z</time></trkpt>
      <trkpt lat="40.7504511" lon="-73.9872327"><time>2026-06-14T18:06:37Z</time><name>left bowl wall up - 6th Avenue / West 35th Street</name></trkpt>
      <trkpt lat="40.7504166" lon="-73.9871516"><time>2026-06-14T18:06:39Z</time></trkpt>
      <trkpt lat="40.7503820" lon="-73.9870705"><time>2026-06-14T18:06:41Z</time></trkpt>
      <trkpt lat="40.7503475" lon="-73.9869895"><time>2026-06-14T18:06:42Z</time></trkpt>
      <trkpt lat="40.7503130" lon="-73.9869084"><time>2026-06-14T18:06:44Z</time></trkpt>
      <trkpt lat="40.7502785" lon="-73.9868273"><time>2026-06-14T18:06:46Z</time></trkpt>
      <trkpt lat="40.7502439" lon="-73.9867462"><time>2026-06-14T18:06:47Z</time></trkpt>
      <trkpt lat="40.7502094" lon="-73.9866651"><time>2026-06-14T18:06:49Z</time></trkpt>
      <trkpt lat="40.7501749" lon="-73.9865840"><time>2026-06-14T18:06:51Z</time></trkpt>
      <trkpt lat="40.7501403" lon="-73.9865030"><time>2026-06-14T18:06:53Z</time></trkpt>
      <trkpt lat="40.7501058" lon="-73.9864219"><time>2026-06-14T18:06:54Z</time></trkpt>
      <trkpt lat="40.7500713" lon="-73.9863408"><time>2026-06-14T18:06:56Z</time></trkpt>
      <trkpt lat="40.7500368" lon="-73.9862597"><time>2026-06-14T18:06:58Z</time></trkpt>
      <trkpt lat="40.7500022" lon="-73.9861786"><time>2026-06-14T18:07:00Z</time></trkpt>
      <trkpt lat="40.7499677" lon="-73.9860976"><time>2026-06-14T18:07:01Z</time></trkpt>
      <trkpt lat="40.7499332" lon="-73.9860165"><time>2026-06-14T18:07:03Z</time></trkpt>
      <trkpt lat="40.7498986" lon="-73.9859354"><time>2026-06-14T18:07:05Z</time></trkpt>
      <trkpt lat="40.7498641" lon="-73.9858543"><time>2026-06-14T18:07:07Z</time></trkpt>
      <trkpt lat="40.7498296" lon="-73.9857732"><time>2026-06-14T18:07:08Z</time></trkpt>
      <trkpt lat="40.7497951" lon="-73.9856921"><time>2026-06-14T18:07:10Z</time></trkpt>
      <trkpt lat="40.7497605" lon="-73.9856111"><time>2026-06-14T18:07:12Z</time></trkpt>
      <trkpt lat="40.7497260" lon="-73.9855300"><time>2026-06-14T18:07:14Z</time></trkpt>
      <trkpt lat="40.7496915" lon="-73.9854489"><time>2026-06-14T18:07:15Z</time></trkpt>
      <trkpt lat="40.7496570" lon="-73.9853678"><time>2026-06-14T18:07:17Z</time></trkpt>
      <trkpt lat="40.7496224" lon="-73.9852867"><time>2026-06-14T18:07:19Z</time></trkpt>
      <trkpt lat="40.7495879" lon="-73.9852056"><time>2026-06-14T18:07:21Z</time></trkpt>
      <trkpt lat="40.7495534" lon="-73.9851246"><time>2026-06-14T18:07:22Z</time></trkpt>
      <trkpt lat="40.7495188" lon="-73.9850435"><time>2026-06-14T18:07:24Z</time></trkpt>
      <trkpt lat="40.7494843" lon="-73.9849624"><time>2026-06-14T18:07:26Z</time></trkpt>
      <trkpt lat="40.7494498" lon="-73.9848813"><time>2026-06-14T18:07:28Z</time></trkpt>
      <trkpt lat="40.7494153" lon="-73.9848002"><time>2026-06-14T18:07:29Z</time></trkpt>
      <trkpt lat="40.7493807" lon="-73.9847192"><time>2026-06-14T18:07:31Z</time></trkpt>
      <trkpt lat="40.7493462" lon="-73.9846381"><time>2026-06-14T18:07:33Z</time></trkpt>
      <trkpt lat="40.7493117" lon="-73.9845570"><time>2026-06-14T18:07:34Z</time></trkpt>
      <trkpt lat="40.7492771" lon="-73.9844759"><time>2026-06-14T18:07:36Z</time></trkpt>
      <trkpt lat="40.7492426" lon="-73.9843948"><time>2026-06-14T18:07:38Z</time></trkpt>
      <trkpt lat="40.7492081" lon="-73.9843137"><time>2026-06-14T18:07:40Z</time></trkpt>
      <trkpt lat="40.7491736" lon="-73.9842327"><time>2026-06-14T18:07:41Z</time></trkpt>
      <trkpt lat="40.7491390" lon="-73.9841516"><time>2026-06-14T18:07:43Z</time></trkpt>
      <trkpt lat="40.7491045" lon="-73.9840705"><time>2026-06-14T18:07:45Z</time><name>left handle outer - 5th Avenue / West 35th Street</name></trkpt>
      <trkpt lat="40.7491663" lon="-73.9840257"><time>2026-06-14T18:07:47Z</time></trkpt>
      <trkpt lat="40.7492282" lon="-73.9839809"><time>2026-06-14T18:07:48Z</time></trkpt>
      <trkpt lat="40.7492900" lon="-73.9839361"><time>2026-06-14T18:07:50Z</time></trkpt>
      <trkpt lat="40.7493519" lon="-73.9838913"><time>2026-06-14T18:07:52Z</time></trkpt>
      <trkpt lat="40.7494137" lon="-73.9838465"><time>2026-06-14T18:07:54Z</time></trkpt>
      <trkpt lat="40.7494755" lon="-73.9838017"><time>2026-06-14T18:07:55Z</time></trkpt>
      <trkpt lat="40.7495374" lon="-73.9837569"><time>2026-06-14T18:07:57Z</time></trkpt>
      <trkpt lat="40.7495992" lon="-73.9837121"><time>2026-06-14T18:07:59Z</time></trkpt>
      <trkpt lat="40.7496611" lon="-73.9836673"><time>2026-06-14T18:08:01Z</time></trkpt>
      <trkpt lat="40.7497229" lon="-73.9836225"><time>2026-06-14T18:08:02Z</time></trkpt>
      <trkpt lat="40.7497847" lon="-73.9835777"><time>2026-06-14T18:08:04Z</time></trkpt>
      <trkpt lat="40.7498466" lon="-73.9835329"><time>2026-06-14T18:08:06Z</time></trkpt>
      <trkpt lat="40.7499084" lon="-73.9834881"><time>2026-06-14T18:08:08Z</time></trkpt>
      <trkpt lat="40.7499703" lon="-73.9834433"><time>2026-06-14T18:08:09Z</time></trkpt>
      <trkpt lat="40.7500321" lon="-73.9833985"><time>2026-06-14T18:08:11Z</time></trkpt>
      <trkpt lat="40.7500939" lon="-73.9833537"><time>2026-06-14T18:08:13Z</time></trkpt>
      <trkpt lat="40.7501558" lon="-73.9833089"><time>2026-06-14T18:08:15Z</time></trkpt>
      <trkpt lat="40.7502176" lon="-73.9832641"><time>2026-06-14T18:08:16Z</time></trkpt>
      <trkpt lat="40.7502795" lon="-73.9832193"><time>2026-06-14T18:08:18Z</time></trkpt>
      <trkpt lat="40.7503413" lon="-73.9831745"><time>2026-06-14T18:08:20Z</time></trkpt>
      <trkpt lat="40.7504031" lon="-73.9831297"><time>2026-06-14T18:08:22Z</time></trkpt>
      <trkpt lat="40.7504650" lon="-73.9830849"><time>2026-06-14T18:08:23Z</time></trkpt>
      <trkpt lat="40.7505268" lon="-73.9830401"><time>2026-06-14T18:08:25Z</time></trkpt>
      <trkpt lat="40.7505887" lon="-73.9829953"><time>2026-06-14T18:08:27Z</time></trkpt>
      <trkpt lat="40.7506505" lon="-73.9829505"><time>2026-06-14T18:08:29Z</time></trkpt>
      <trkpt lat="40.7507123" lon="-73.9829057"><time>2026-06-14T18:08:30Z</time></trkpt>
      <trkpt lat="40.7507742" lon="-73.9828609"><time>2026-06-14T18:08:32Z</time></trkpt>
      <trkpt lat="40.7508360" lon="-73.9828161"><time>2026-06-14T18:08:34Z</time></trkpt>
      <trkpt lat="40.7508979" lon="-73.9827713"><time>2026-06-14T18:08:35Z</time></trkpt>
      <trkpt lat="40.7509597" lon="-73.9827265"><time>2026-06-14T18:08:37Z</time><name>left handle top - 5th Avenue / West 38th Street</name></trkpt>
      <trkpt lat="40.7509945" lon="-73.9828091"><time>2026-06-14T18:08:39Z</time></trkpt>
      <trkpt lat="40.7510293" lon="-73.9828917"><time>2026-06-14T18:08:41Z</time></trkpt>
      <trkpt lat="40.7510641" lon="-73.9829742"><time>2026-06-14T18:08:43Z</time></trkpt>
      <trkpt lat="40.7510989" lon="-73.9830568"><time>2026-06-14T18:08:44Z</time></trkpt>
      <trkpt lat="40.7511337" lon="-73.9831394"><time>2026-06-14T18:08:46Z</time></trkpt>
      <trkpt lat="40.7511685" lon="-73.9832220"><time>2026-06-14T18:08:48Z</time></trkpt>
      <trkpt lat="40.7512033" lon="-73.9833045"><time>2026-06-14T18:08:50Z</time></trkpt>
      <trkpt lat="40.7512381" lon="-73.9833871"><time>2026-06-14T18:08:51Z</time></trkpt>
      <trkpt lat="40.7512729" lon="-73.9834697"><time>2026-06-14T18:08:53Z</time></trkpt>
      <trkpt lat="40.7513077" lon="-73.9835523"><time>2026-06-14T18:08:55Z</time></trkpt>
      <trkpt lat="40.7513425" lon="-73.9836348"><time>2026-06-14T18:08:57Z</time></trkpt>
      <trkpt lat="40.7513773" lon="-73.9837174"><time>2026-06-14T18:08:58Z</time></trkpt>
      <trkpt lat="40.7514121" lon="-73.9838000"><time>2026-06-14T18:09:00Z</time></trkpt>
      <trkpt lat="40.7514469" lon="-73.9838826"><time>2026-06-14T18:09:02Z</time></trkpt>
      <trkpt lat="40.7514817" lon="-73.9839652"><time>2026-06-14T18:09:04Z</time></trkpt>
      <trkpt lat="40.7515165" lon="-73.9840477"><time>2026-06-14T18:09:06Z</time></trkpt>
      <trkpt lat="40.7515513" lon="-73.9841303"><time>2026-06-14T18:09:07Z</time></trkpt>
      <trkpt lat="40.7515861" lon="-73.9842129"><time>2026-06-14T18:09:09Z</time></trkpt>
      <trkpt lat="40.7516209" lon="-73.9842955"><time>2026-06-14T18:09:11Z</time></trkpt>
      <trkpt lat="40.7516558" lon="-73.9843780"><time>2026-06-14T18:09:13Z</time></trkpt>
      <trkpt lat="40.7516906" lon="-73.9844606"><time>2026-06-14T18:09:14Z</time></trkpt>
      <trkpt lat="40.7517254" lon="-73.9845432"><time>2026-06-14T18:09:16Z</time></trkpt>
      <trkpt lat="40.7517602" lon="-73.9846258"><time>2026-06-14T18:09:18Z</time></trkpt>
      <trkpt lat="40.7517950" lon="-73.9847083"><time>2026-06-14T18:09:20Z</time></trkpt>
      <trkpt lat="40.7518298" lon="-73.9847909"><time>2026-06-14T18:09:21Z</time></trkpt>
      <trkpt lat="40.7518646" lon="-73.9848735"><time>2026-06-14T18:09:23Z</time></trkpt>
      <trkpt lat="40.7518994" lon="-73.9849561"><time>2026-06-14T18:09:25Z</time></trkpt>
      <trkpt lat="40.7519342" lon="-73.9850387"><time>2026-06-14T18:09:27Z</time></trkpt>
      <trkpt lat="40.7519690" lon="-73.9851212"><time>2026-06-14T18:09:29Z</time></trkpt>
      <trkpt lat="40.7520038" lon="-73.9852038"><time>2026-06-14T18:09:30Z</time></trkpt>
      <trkpt lat="40.7520386" lon="-73.9852864"><time>2026-06-14T18:09:32Z</time></trkpt>
      <trkpt lat="40.7520734" lon="-73.9853690"><time>2026-06-14T18:09:34Z</time></trkpt>
      <trkpt lat="40.7521082" lon="-73.9854515"><time>2026-06-14T18:09:36Z</time></trkpt>
      <trkpt lat="40.7521430" lon="-73.9855341"><time>2026-06-14T18:09:37Z</time></trkpt>
      <trkpt lat="40.7521778" lon="-73.9856167"><time>2026-06-14T18:09:39Z</time></trkpt>
      <trkpt lat="40.7522126" lon="-73.9856993"><time>2026-06-14T18:09:41Z</time></trkpt>
      <trkpt lat="40.7522474" lon="-73.9857818"><time>2026-06-14T18:09:43Z</time></trkpt>
      <trkpt lat="40.7522822" lon="-73.9858644"><time>2026-06-14T18:09:44Z</time></trkpt>
      <trkpt lat="40.7523170" lon="-73.9859470"><time>2026-06-14T18:09:46Z</time><name>left rim return - 6th Avenue / West 38th Street</name></trkpt>
      <trkpt lat="40.7523791" lon="-73.9859016"><time>2026-06-14T18:09:48Z</time></trkpt>
      <trkpt lat="40.7524411" lon="-73.9858563"><time>2026-06-14T18:09:50Z</time></trkpt>
      <trkpt lat="40.7525032" lon="-73.9858109"><time>2026-06-14T18:09:51Z</time></trkpt>
      <trkpt lat="40.7525653" lon="-73.9857655"><time>2026-06-14T18:09:53Z</time></trkpt>
      <trkpt lat="40.7526274" lon="-73.9857202"><time>2026-06-14T18:09:55Z</time></trkpt>
      <trkpt lat="40.7526894" lon="-73.9856748"><time>2026-06-14T18:09:57Z</time></trkpt>
      <trkpt lat="40.7527515" lon="-73.9856294"><time>2026-06-14T18:09:58Z</time></trkpt>
      <trkpt lat="40.7528136" lon="-73.9855841"><time>2026-06-14T18:10:00Z</time></trkpt>
      <trkpt lat="40.7528757" lon="-73.9855387"><time>2026-06-14T18:10:02Z</time></trkpt>
      <trkpt lat="40.7529378" lon="-73.9854933"><time>2026-06-14T18:10:04Z</time></trkpt>
      <trkpt lat="40.7529998" lon="-73.9854480"><time>2026-06-14T18:10:06Z</time></trkpt>
      <trkpt lat="40.7530619" lon="-73.9854026"><time>2026-06-14T18:10:07Z</time></trkpt>
      <trkpt lat="40.7531240" lon="-73.9853573"><time>2026-06-14T18:10:09Z</time></trkpt>
      <trkpt lat="40.7531860" lon="-73.9853119"><time>2026-06-14T18:10:11Z</time></trkpt>
      <trkpt lat="40.7532481" lon="-73.9852665"><time>2026-06-14T18:10:13Z</time></trkpt>
      <trkpt lat="40.7533102" lon="-73.9852212"><time>2026-06-14T18:10:14Z</time></trkpt>
      <trkpt lat="40.7533723" lon="-73.9851758"><time>2026-06-14T18:10:16Z</time></trkpt>
      <trkpt lat="40.7534343" lon="-73.9851304"><time>2026-06-14T18:10:18Z</time></trkpt>
      <trkpt lat="40.7534964" lon="-73.9850851"><time>2026-06-14T18:10:20Z</time></trkpt>
      <trkpt lat="40.7535585" lon="-73.9850397"><time>2026-06-14T18:10:21Z</time><name>left rim rise - 6th Avenue / West 40th Street</name></trkpt>
      <trkpt lat="40.7535934" lon="-73.9851226"><time>2026-06-14T18:10:23Z</time></trkpt>
      <trkpt lat="40.7536283" lon="-73.9852055"><time>2026-06-14T18:10:25Z</time></trkpt>
      <trkpt lat="40.7536632" lon="-73.9852884"><time>2026-06-14T18:10:27Z</time></trkpt>
      <trkpt lat="40.7536981" lon="-73.9853713"><time>2026-06-14T18:10:28Z</time></trkpt>
      <trkpt lat="40.7537330" lon="-73.9854542"><time>2026-06-14T18:10:30Z</time></trkpt>
      <trkpt lat="40.7537679" lon="-73.9855371"><time>2026-06-14T18:10:32Z</time></trkpt>
      <trkpt lat="40.7538028" lon="-73.9856200"><time>2026-06-14T18:10:34Z</time></trkpt>
      <trkpt lat="40.7538377" lon="-73.9857029"><time>2026-06-14T18:10:35Z</time></trkpt>
      <trkpt lat="40.7538726" lon="-73.9857858"><time>2026-06-14T18:10:37Z</time></trkpt>
      <trkpt lat="40.7539075" lon="-73.9858687"><time>2026-06-14T18:10:39Z</time></trkpt>
      <trkpt lat="40.7539424" lon="-73.9859516"><time>2026-06-14T18:10:41Z</time></trkpt>
      <trkpt lat="40.7539773" lon="-73.9860345"><time>2026-06-14T18:10:43Z</time></trkpt>
      <trkpt lat="40.7540123" lon="-73.9861174"><time>2026-06-14T18:10:44Z</time></trkpt>
      <trkpt lat="40.7540472" lon="-73.9862003"><time>2026-06-14T18:10:46Z</time></trkpt>
      <trkpt lat="40.7540821" lon="-73.9862832"><time>2026-06-14T18:10:48Z</time></trkpt>
      <trkpt lat="40.7541170" lon="-73.9863661"><time>2026-06-14T18:10:50Z</time></trkpt>
      <trkpt lat="40.7541519" lon="-73.9864490"><time>2026-06-14T18:10:51Z</time></trkpt>
      <trkpt lat="40.7541868" lon="-73.9865319"><time>2026-06-14T18:10:53Z</time></trkpt>
      <trkpt lat="40.7542217" lon="-73.9866148"><time>2026-06-14T18:10:55Z</time></trkpt>
      <trkpt lat="40.7542566" lon="-73.9866977"><time>2026-06-14T18:10:57Z</time></trkpt>
      <trkpt lat="40.7542915" lon="-73.9867806"><time>2026-06-14T18:10:59Z</time></trkpt>
      <trkpt lat="40.7543264" lon="-73.9868635"><time>2026-06-14T18:11:00Z</time></trkpt>
      <trkpt lat="40.7543613" lon="-73.9869464"><time>2026-06-14T18:11:02Z</time></trkpt>
      <trkpt lat="40.7543962" lon="-73.9870293"><time>2026-06-14T18:11:04Z</time></trkpt>
      <trkpt lat="40.7544311" lon="-73.9871122"><time>2026-06-14T18:11:06Z</time></trkpt>
      <trkpt lat="40.7544660" lon="-73.9871951"><time>2026-06-14T18:11:07Z</time></trkpt>
      <trkpt lat="40.7545009" lon="-73.9872780"><time>2026-06-14T18:11:09Z</time></trkpt>
      <trkpt lat="40.7545358" lon="-73.9873609"><time>2026-06-14T18:11:11Z</time></trkpt>
      <trkpt lat="40.7545707" lon="-73.9874438"><time>2026-06-14T18:11:13Z</time></trkpt>
      <trkpt lat="40.7546056" lon="-73.9875267"><time>2026-06-14T18:11:15Z</time></trkpt>
      <trkpt lat="40.7546405" lon="-73.9876096"><time>2026-06-14T18:11:16Z</time></trkpt>
      <trkpt lat="40.7546754" lon="-73.9876925"><time>2026-06-14T18:11:18Z</time></trkpt>
      <trkpt lat="40.7547103" lon="-73.9877754"><time>2026-06-14T18:11:20Z</time></trkpt>
      <trkpt lat="40.7547452" lon="-73.9878583"><time>2026-06-14T18:11:22Z</time></trkpt>
      <trkpt lat="40.7547801" lon="-73.9879412"><time>2026-06-14T18:11:23Z</time></trkpt>
      <trkpt lat="40.7548150" lon="-73.9880241"><time>2026-06-14T18:11:25Z</time></trkpt>
      <trkpt lat="40.7548499" lon="-73.9881070"><time>2026-06-14T18:11:27Z</time></trkpt>
      <trkpt lat="40.7548848" lon="-73.9881899"><time>2026-06-14T18:11:29Z</time></trkpt>
      <trkpt lat="40.7549198" lon="-73.9882728"><time>2026-06-14T18:11:31Z</time></trkpt>
      <trkpt lat="40.7549547" lon="-73.9883557"><time>2026-06-14T18:11:32Z</time></trkpt>
      <trkpt lat="40.7549896" lon="-73.9884386"><time>2026-06-14T18:11:34Z</time></trkpt>
      <trkpt lat="40.7550245" lon="-73.9885215"><time>2026-06-14T18:11:36Z</time></trkpt>
      <trkpt lat="40.7550594" lon="-73.9886044"><time>2026-06-14T18:11:38Z</time></trkpt>
      <trkpt lat="40.7550943" lon="-73.9886873"><time>2026-06-14T18:11:39Z</time></trkpt>
      <trkpt lat="40.7551292" lon="-73.9887702"><time>2026-06-14T18:11:41Z</time></trkpt>
      <trkpt lat="40.7551641" lon="-73.9888531"><time>2026-06-14T18:11:43Z</time></trkpt>
      <trkpt lat="40.7551990" lon="-73.9889360"><time>2026-06-14T18:11:45Z</time></trkpt>
      <trkpt lat="40.7552339" lon="-73.9890189"><time>2026-06-14T18:11:47Z</time></trkpt>
      <trkpt lat="40.7552688" lon="-73.9891018"><time>2026-06-14T18:11:48Z</time></trkpt>
      <trkpt lat="40.7553037" lon="-73.9891847"><time>2026-06-14T18:11:50Z</time></trkpt>
      <trkpt lat="40.7553386" lon="-73.9892676"><time>2026-06-14T18:11:52Z</time></trkpt>
      <trkpt lat="40.7553735" lon="-73.9893506"><time>2026-06-14T18:11:54Z</time></trkpt>
      <trkpt lat="40.7554084" lon="-73.9894335"><time>2026-06-14T18:11:55Z</time></trkpt>
      <trkpt lat="40.7554433" lon="-73.9895164"><time>2026-06-14T18:11:57Z</time></trkpt>
      <trkpt lat="40.7554782" lon="-73.9895993"><time>2026-06-14T18:11:59Z</time></trkpt>
      <trkpt lat="40.7555131" lon="-73.9896822"><time>2026-06-14T18:12:01Z</time></trkpt>
      <trkpt lat="40.7555480" lon="-73.9897651"><time>2026-06-14T18:12:02Z</time></trkpt>
      <trkpt lat="40.7555829" lon="-73.9898480"><time>2026-06-14T18:12:04Z</time></trkpt>
      <trkpt lat="40.7556178" lon="-73.9899309"><time>2026-06-14T18:12:06Z</time></trkpt>
      <trkpt lat="40.7556527" lon="-73.9900138"><time>2026-06-14T18:12:08Z</time></trkpt>
      <trkpt lat="40.7556876" lon="-73.9900967"><time>2026-06-14T18:12:10Z</time></trkpt>
      <trkpt lat="40.7557225" lon="-73.9901796"><time>2026-06-14T18:12:11Z</time></trkpt>
      <trkpt lat="40.7557574" lon="-73.9902625"><time>2026-06-14T18:12:13Z</time></trkpt>
      <trkpt lat="40.7557923" lon="-73.9903454"><time>2026-06-14T18:12:15Z</time></trkpt>
      <trkpt lat="40.7558273" lon="-73.9904283"><time>2026-06-14T18:12:17Z</time></trkpt>
      <trkpt lat="40.7558622" lon="-73.9905112"><time>2026-06-14T18:12:18Z</time></trkpt>
      <trkpt lat="40.7558971" lon="-73.9905941"><time>2026-06-14T18:12:20Z</time></trkpt>
      <trkpt lat="40.7559320" lon="-73.9906770"><time>2026-06-14T18:12:22Z</time></trkpt>
      <trkpt lat="40.7559669" lon="-73.9907599"><time>2026-06-14T18:12:24Z</time></trkpt>
      <trkpt lat="40.7560018" lon="-73.9908428"><time>2026-06-14T18:12:26Z</time></trkpt>
      <trkpt lat="40.7560367" lon="-73.9909257"><time>2026-06-14T18:12:27Z</time></trkpt>
      <trkpt lat="40.7560716" lon="-73.9910086"><time>2026-06-14T18:12:29Z</time></trkpt>
      <trkpt lat="40.7561065" lon="-73.9910915"><time>2026-06-14T18:12:31Z</time></trkpt>
      <trkpt lat="40.7561414" lon="-73.9911744"><time>2026-06-14T18:12:33Z</time></trkpt>
      <trkpt lat="40.7561763" lon="-73.9912573"><time>2026-06-14T18:12:34Z</time></trkpt>
      <trkpt lat="40.7562112" lon="-73.9913402"><time>2026-06-14T18:12:36Z</time></trkpt>
      <trkpt lat="40.7562461" lon="-73.9914231"><time>2026-06-14T18:12:38Z</time></trkpt>
      <trkpt lat="40.7562810" lon="-73.9915060"><time>2026-06-14T18:12:40Z</time></trkpt>
      <trkpt lat="40.7563159" lon="-73.9915889"><time>2026-06-14T18:12:42Z</time></trkpt>
      <trkpt lat="40.7563508" lon="-73.9916718"><time>2026-06-14T18:12:43Z</time></trkpt>
      <trkpt lat="40.7563857" lon="-73.9917547"><time>2026-06-14T18:12:45Z</time></trkpt>
      <trkpt lat="40.7564206" lon="-73.9918376"><time>2026-06-14T18:12:47Z</time></trkpt>
      <trkpt lat="40.7564555" lon="-73.9919205"><time>2026-06-14T18:12:49Z</time></trkpt>
      <trkpt lat="40.7564904" lon="-73.9920034"><time>2026-06-14T18:12:50Z</time></trkpt>
      <trkpt lat="40.7565253" lon="-73.9920863"><time>2026-06-14T18:12:52Z</time></trkpt>
      <trkpt lat="40.7565602" lon="-73.9921692"><time>2026-06-14T18:12:54Z</time></trkpt>
      <trkpt lat="40.7565951" lon="-73.9922521"><time>2026-06-14T18:12:56Z</time></trkpt>
      <trkpt lat="40.7566300" lon="-73.9923350"><time>2026-06-14T18:12:58Z</time></trkpt>
      <trkpt lat="40.7566649" lon="-73.9924179"><time>2026-06-14T18:12:59Z</time></trkpt>
      <trkpt lat="40.7566998" lon="-73.9925008"><time>2026-06-14T18:13:01Z</time></trkpt>
      <trkpt lat="40.7567348" lon="-73.9925837"><time>2026-06-14T18:13:03Z</time></trkpt>
      <trkpt lat="40.7567697" lon="-73.9926666"><time>2026-06-14T18:13:05Z</time></trkpt>
      <trkpt lat="40.7568046" lon="-73.9927495"><time>2026-06-14T18:13:06Z</time></trkpt>
      <trkpt lat="40.7568395" lon="-73.9928324"><time>2026-06-14T18:13:08Z</time></trkpt>
      <trkpt lat="40.7568744" lon="-73.9929153"><time>2026-06-14T18:13:10Z</time></trkpt>
      <trkpt lat="40.7569093" lon="-73.9929982"><time>2026-06-14T18:13:12Z</time></trkpt>
      <trkpt lat="40.7569442" lon="-73.9930811"><time>2026-06-14T18:13:13Z</time></trkpt>
      <trkpt lat="40.7569791" lon="-73.9931640"><time>2026-06-14T18:13:15Z</time></trkpt>
      <trkpt lat="40.7570140" lon="-73.9932469"><time>2026-06-14T18:13:17Z</time></trkpt>
      <trkpt lat="40.7570489" lon="-73.9933298"><time>2026-06-14T18:13:19Z</time></trkpt>
      <trkpt lat="40.7570838" lon="-73.9934127"><time>2026-06-14T18:13:21Z</time></trkpt>
      <trkpt lat="40.7571187" lon="-73.9934956"><time>2026-06-14T18:13:22Z</time></trkpt>
      <trkpt lat="40.7571536" lon="-73.9935785"><time>2026-06-14T18:13:24Z</time><name>top rim right - 9th Avenue / West 40th Street</name></trkpt>
      <trkpt lat="40.7570911" lon="-73.9936233"><time>2026-06-14T18:13:26Z</time></trkpt>
      <trkpt lat="40.7570287" lon="-73.9936682"><time>2026-06-14T18:13:28Z</time></trkpt>
      <trkpt lat="40.7569662" lon="-73.9937130"><time>2026-06-14T18:13:29Z</time></trkpt>
      <trkpt lat="40.7569038" lon="-73.9937579"><time>2026-06-14T18:13:31Z</time></trkpt>
      <trkpt lat="40.7568413" lon="-73.9938027"><time>2026-06-14T18:13:33Z</time></trkpt>
      <trkpt lat="40.7567789" lon="-73.9938475"><time>2026-06-14T18:13:35Z</time></trkpt>
      <trkpt lat="40.7567164" lon="-73.9938924"><time>2026-06-14T18:13:36Z</time></trkpt>
      <trkpt lat="40.7566540" lon="-73.9939372"><time>2026-06-14T18:13:38Z</time></trkpt>
      <trkpt lat="40.7565915" lon="-73.9939821"><time>2026-06-14T18:13:40Z</time></trkpt>
      <trkpt lat="40.7565290" lon="-73.9940269"><time>2026-06-14T18:13:42Z</time></trkpt>
      <trkpt lat="40.7564666" lon="-73.9940717"><time>2026-06-14T18:13:43Z</time></trkpt>
      <trkpt lat="40.7564041" lon="-73.9941166"><time>2026-06-14T18:13:45Z</time></trkpt>
      <trkpt lat="40.7563417" lon="-73.9941614"><time>2026-06-14T18:13:47Z</time></trkpt>
      <trkpt lat="40.7562792" lon="-73.9942063"><time>2026-06-14T18:13:49Z</time></trkpt>
      <trkpt lat="40.7562168" lon="-73.9942511"><time>2026-06-14T18:13:50Z</time></trkpt>
      <trkpt lat="40.7561543" lon="-73.9942959"><time>2026-06-14T18:13:52Z</time></trkpt>
      <trkpt lat="40.7560919" lon="-73.9943408"><time>2026-06-14T18:13:54Z</time></trkpt>
      <trkpt lat="40.7560294" lon="-73.9943856"><time>2026-06-14T18:13:56Z</time></trkpt>
      <trkpt lat="40.7559670" lon="-73.9944305"><time>2026-06-14T18:13:58Z</time></trkpt>
      <trkpt lat="40.7559045" lon="-73.9944753"><time>2026-06-14T18:13:59Z</time><name>right rim drop - 9th Avenue / West 38th Street</name></trkpt>
      <trkpt lat="40.7559385" lon="-73.9945566"><time>2026-06-14T18:14:01Z</time></trkpt>
      <trkpt lat="40.7559724" lon="-73.9946380"><time>2026-06-14T18:14:03Z</time></trkpt>
      <trkpt lat="40.7560064" lon="-73.9947193"><time>2026-06-14T18:14:04Z</time></trkpt>
      <trkpt lat="40.7560404" lon="-73.9948006"><time>2026-06-14T18:14:06Z</time></trkpt>
      <trkpt lat="40.7560744" lon="-73.9948820"><time>2026-06-14T18:14:08Z</time></trkpt>
      <trkpt lat="40.7561083" lon="-73.9949633"><time>2026-06-14T18:14:10Z</time></trkpt>
      <trkpt lat="40.7561423" lon="-73.9950446"><time>2026-06-14T18:14:11Z</time></trkpt>
      <trkpt lat="40.7561763" lon="-73.9951260"><time>2026-06-14T18:14:13Z</time></trkpt>
      <trkpt lat="40.7562103" lon="-73.9952073"><time>2026-06-14T18:14:15Z</time></trkpt>
      <trkpt lat="40.7562442" lon="-73.9952886"><time>2026-06-14T18:14:17Z</time></trkpt>
      <trkpt lat="40.7562782" lon="-73.9953699"><time>2026-06-14T18:14:18Z</time></trkpt>
      <trkpt lat="40.7563122" lon="-73.9954513"><time>2026-06-14T18:14:20Z</time></trkpt>
      <trkpt lat="40.7563462" lon="-73.9955326"><time>2026-06-14T18:14:22Z</time></trkpt>
      <trkpt lat="40.7563801" lon="-73.9956139"><time>2026-06-14T18:14:24Z</time></trkpt>
      <trkpt lat="40.7564141" lon="-73.9956953"><time>2026-06-14T18:14:25Z</time></trkpt>
      <trkpt lat="40.7564481" lon="-73.9957766"><time>2026-06-14T18:14:27Z</time></trkpt>
      <trkpt lat="40.7564821" lon="-73.9958579"><time>2026-06-14T18:14:29Z</time></trkpt>
      <trkpt lat="40.7565160" lon="-73.9959393"><time>2026-06-14T18:14:31Z</time></trkpt>
      <trkpt lat="40.7565500" lon="-73.9960206"><time>2026-06-14T18:14:32Z</time></trkpt>
      <trkpt lat="40.7565840" lon="-73.9961019"><time>2026-06-14T18:14:34Z</time></trkpt>
      <trkpt lat="40.7566180" lon="-73.9961833"><time>2026-06-14T18:14:36Z</time></trkpt>
      <trkpt lat="40.7566519" lon="-73.9962646"><time>2026-06-14T18:14:38Z</time></trkpt>
      <trkpt lat="40.7566859" lon="-73.9963459"><time>2026-06-14T18:14:39Z</time></trkpt>
      <trkpt lat="40.7567199" lon="-73.9964273"><time>2026-06-14T18:14:41Z</time></trkpt>
      <trkpt lat="40.7567539" lon="-73.9965086"><time>2026-06-14T18:14:43Z</time></trkpt>
      <trkpt lat="40.7567878" lon="-73.9965899"><time>2026-06-14T18:14:44Z</time></trkpt>
      <trkpt lat="40.7568218" lon="-73.9966712"><time>2026-06-14T18:14:46Z</time></trkpt>
      <trkpt lat="40.7568558" lon="-73.9967526"><time>2026-06-14T18:14:48Z</time></trkpt>
      <trkpt lat="40.7568898" lon="-73.9968339"><time>2026-06-14T18:14:50Z</time></trkpt>
      <trkpt lat="40.7569237" lon="-73.9969152"><time>2026-06-14T18:14:51Z</time></trkpt>
      <trkpt lat="40.7569577" lon="-73.9969966"><time>2026-06-14T18:14:53Z</time></trkpt>
      <trkpt lat="40.7569917" lon="-73.9970779"><time>2026-06-14T18:14:55Z</time></trkpt>
      <trkpt lat="40.7570257" lon="-73.9971592"><time>2026-06-14T18:14:57Z</time></trkpt>
      <trkpt lat="40.7570596" lon="-73.9972406"><time>2026-06-14T18:14:58Z</time></trkpt>
      <trkpt lat="40.7570936" lon="-73.9973219"><time>2026-06-14T18:15:00Z</time><name>right handle outer - 10th Avenue / West 38th Street</name></trkpt>
      <trkpt lat="40.7570324" lon="-73.9973665"><time>2026-06-14T18:15:02Z</time></trkpt>
      <trkpt lat="40.7569711" lon="-73.9974110"><time>2026-06-14T18:15:04Z</time></trkpt>
      <trkpt lat="40.7569099" lon="-73.9974556"><time>2026-06-14T18:15:05Z</time></trkpt>
      <trkpt lat="40.7568487" lon="-73.9975002"><time>2026-06-14T18:15:07Z</time></trkpt>
      <trkpt lat="40.7567874" lon="-73.9975447"><time>2026-06-14T18:15:09Z</time></trkpt>
      <trkpt lat="40.7567262" lon="-73.9975893"><time>2026-06-14T18:15:10Z</time></trkpt>
      <trkpt lat="40.7566649" lon="-73.9976338"><time>2026-06-14T18:15:12Z</time></trkpt>
      <trkpt lat="40.7566037" lon="-73.9976784"><time>2026-06-14T18:15:14Z</time></trkpt>
      <trkpt lat="40.7565425" lon="-73.9977230"><time>2026-06-14T18:15:16Z</time></trkpt>
      <trkpt lat="40.7564812" lon="-73.9977675"><time>2026-06-14T18:15:17Z</time></trkpt>
      <trkpt lat="40.7564200" lon="-73.9978121"><time>2026-06-14T18:15:19Z</time></trkpt>
      <trkpt lat="40.7563588" lon="-73.9978567"><time>2026-06-14T18:15:21Z</time></trkpt>
      <trkpt lat="40.7562975" lon="-73.9979012"><time>2026-06-14T18:15:23Z</time></trkpt>
      <trkpt lat="40.7562363" lon="-73.9979458"><time>2026-06-14T18:15:24Z</time></trkpt>
      <trkpt lat="40.7561750" lon="-73.9979904"><time>2026-06-14T18:15:26Z</time></trkpt>
      <trkpt lat="40.7561138" lon="-73.9980349"><time>2026-06-14T18:15:28Z</time></trkpt>
      <trkpt lat="40.7560526" lon="-73.9980795"><time>2026-06-14T18:15:29Z</time></trkpt>
      <trkpt lat="40.7559913" lon="-73.9981240"><time>2026-06-14T18:15:31Z</time></trkpt>
      <trkpt lat="40.7559301" lon="-73.9981686"><time>2026-06-14T18:15:33Z</time></trkpt>
      <trkpt lat="40.7558689" lon="-73.9982132"><time>2026-06-14T18:15:35Z</time></trkpt>
      <trkpt lat="40.7558076" lon="-73.9982577"><time>2026-06-14T18:15:36Z</time></trkpt>
      <trkpt lat="40.7557464" lon="-73.9983023"><time>2026-06-14T18:15:38Z</time></trkpt>
      <trkpt lat="40.7556852" lon="-73.9983469"><time>2026-06-14T18:15:40Z</time></trkpt>
      <trkpt lat="40.7556239" lon="-73.9983914"><time>2026-06-14T18:15:42Z</time></trkpt>
      <trkpt lat="40.7555627" lon="-73.9984360"><time>2026-06-14T18:15:43Z</time></trkpt>
      <trkpt lat="40.7555014" lon="-73.9984805"><time>2026-06-14T18:15:45Z</time></trkpt>
      <trkpt lat="40.7554402" lon="-73.9985251"><time>2026-06-14T18:15:47Z</time></trkpt>
      <trkpt lat="40.7553790" lon="-73.9985697"><time>2026-06-14T18:15:49Z</time></trkpt>
      <trkpt lat="40.7553177" lon="-73.9986142"><time>2026-06-14T18:15:50Z</time></trkpt>
      <trkpt lat="40.7552565" lon="-73.9986588"><time>2026-06-14T18:15:52Z</time><name>right handle lower - 10th Avenue / West 35th Street</name></trkpt>
      <trkpt lat="40.7552216" lon="-73.9985760"><time>2026-06-14T18:15:54Z</time></trkpt>
      <trkpt lat="40.7551868" lon="-73.9984932"><time>2026-06-14T18:15:56Z</time></trkpt>
      <trkpt lat="40.7551519" lon="-73.9984103"><time>2026-06-14T18:15:57Z</time></trkpt>
      <trkpt lat="40.7551171" lon="-73.9983275"><time>2026-06-14T18:15:59Z</time></trkpt>
      <trkpt lat="40.7550822" lon="-73.9982447"><time>2026-06-14T18:16:01Z</time></trkpt>
      <trkpt lat="40.7550473" lon="-73.9981619"><time>2026-06-14T18:16:03Z</time></trkpt>
      <trkpt lat="40.7550125" lon="-73.9980790"><time>2026-06-14T18:16:04Z</time></trkpt>
      <trkpt lat="40.7549776" lon="-73.9979962"><time>2026-06-14T18:16:06Z</time></trkpt>
      <trkpt lat="40.7549428" lon="-73.9979134"><time>2026-06-14T18:16:08Z</time></trkpt>
      <trkpt lat="40.7549079" lon="-73.9978306"><time>2026-06-14T18:16:10Z</time></trkpt>
      <trkpt lat="40.7548731" lon="-73.9977477"><time>2026-06-14T18:16:11Z</time></trkpt>
      <trkpt lat="40.7548382" lon="-73.9976649"><time>2026-06-14T18:16:13Z</time></trkpt>
      <trkpt lat="40.7548033" lon="-73.9975821"><time>2026-06-14T18:16:15Z</time></trkpt>
      <trkpt lat="40.7547685" lon="-73.9974993"><time>2026-06-14T18:16:17Z</time></trkpt>
      <trkpt lat="40.7547336" lon="-73.9974164"><time>2026-06-14T18:16:19Z</time></trkpt>
      <trkpt lat="40.7546988" lon="-73.9973336"><time>2026-06-14T18:16:20Z</time></trkpt>
      <trkpt lat="40.7546639" lon="-73.9972508"><time>2026-06-14T18:16:22Z</time></trkpt>
      <trkpt lat="40.7546290" lon="-73.9971680"><time>2026-06-14T18:16:24Z</time></trkpt>
      <trkpt lat="40.7545942" lon="-73.9970852"><time>2026-06-14T18:16:26Z</time></trkpt>
      <trkpt lat="40.7545593" lon="-73.9970023"><time>2026-06-14T18:16:27Z</time></trkpt>
      <trkpt lat="40.7545245" lon="-73.9969195"><time>2026-06-14T18:16:29Z</time></trkpt>
      <trkpt lat="40.7544896" lon="-73.9968367"><time>2026-06-14T18:16:31Z</time></trkpt>
      <trkpt lat="40.7544547" lon="-73.9967539"><time>2026-06-14T18:16:33Z</time></trkpt>
      <trkpt lat="40.7544199" lon="-73.9966710"><time>2026-06-14T18:16:35Z</time></trkpt>
      <trkpt lat="40.7543850" lon="-73.9965882"><time>2026-06-14T18:16:36Z</time></trkpt>
      <trkpt lat="40.7543502" lon="-73.9965054"><time>2026-06-14T18:16:38Z</time></trkpt>
      <trkpt lat="40.7543153" lon="-73.9964226"><time>2026-06-14T18:16:40Z</time></trkpt>
      <trkpt lat="40.7542805" lon="-73.9963397"><time>2026-06-14T18:16:42Z</time></trkpt>
      <trkpt lat="40.7542456" lon="-73.9962569"><time>2026-06-14T18:16:43Z</time></trkpt>
      <trkpt lat="40.7542107" lon="-73.9961741"><time>2026-06-14T18:16:45Z</time></trkpt>
      <trkpt lat="40.7541759" lon="-73.9960913"><time>2026-06-14T18:16:47Z</time></trkpt>
      <trkpt lat="40.7541410" lon="-73.9960084"><time>2026-06-14T18:16:49Z</time></trkpt>
      <trkpt lat="40.7541062" lon="-73.9959256"><time>2026-06-14T18:16:50Z</time></trkpt>
      <trkpt lat="40.7540713" lon="-73.9958428"><time>2026-06-14T18:16:52Z</time><name>right bowl return - 9th Avenue / West 35th Street</name></trkpt>
      <trkpt lat="40.7540109" lon="-73.9958871"><time>2026-06-14T18:16:54Z</time></trkpt>
      <trkpt lat="40.7539504" lon="-73.9959314"><time>2026-06-14T18:16:56Z</time></trkpt>
      <trkpt lat="40.7538900" lon="-73.9959756"><time>2026-06-14T18:16:57Z</time></trkpt>
      <trkpt lat="40.7538296" lon="-73.9960199"><time>2026-06-14T18:16:59Z</time></trkpt>
      <trkpt lat="40.7537691" lon="-73.9960642"><time>2026-06-14T18:17:01Z</time></trkpt>
      <trkpt lat="40.7537087" lon="-73.9961085"><time>2026-06-14T18:17:03Z</time></trkpt>
      <trkpt lat="40.7536483" lon="-73.9961527"><time>2026-06-14T18:17:04Z</time></trkpt>
      <trkpt lat="40.7535878" lon="-73.9961970"><time>2026-06-14T18:17:06Z</time></trkpt>
      <trkpt lat="40.7535274" lon="-73.9962413"><time>2026-06-14T18:17:08Z</time></trkpt>
      <trkpt lat="40.7534670" lon="-73.9962856"><time>2026-06-14T18:17:09Z</time></trkpt>
      <trkpt lat="40.7534066" lon="-73.9963298"><time>2026-06-14T18:17:11Z</time></trkpt>
      <trkpt lat="40.7533461" lon="-73.9963741"><time>2026-06-14T18:17:13Z</time></trkpt>
      <trkpt lat="40.7532857" lon="-73.9964184"><time>2026-06-14T18:17:14Z</time></trkpt>
      <trkpt lat="40.7532253" lon="-73.9964627"><time>2026-06-14T18:17:16Z</time></trkpt>
      <trkpt lat="40.7531648" lon="-73.9965070"><time>2026-06-14T18:17:18Z</time></trkpt>
      <trkpt lat="40.7531044" lon="-73.9965512"><time>2026-06-14T18:17:20Z</time></trkpt>
      <trkpt lat="40.7530440" lon="-73.9965955"><time>2026-06-14T18:17:21Z</time></trkpt>
      <trkpt lat="40.7529835" lon="-73.9966398"><time>2026-06-14T18:17:23Z</time></trkpt>
      <trkpt lat="40.7529231" lon="-73.9966841"><time>2026-06-14T18:17:25Z</time></trkpt>
      <trkpt lat="40.7528627" lon="-73.9967283"><time>2026-06-14T18:17:26Z</time></trkpt>
      <trkpt lat="40.7528022" lon="-73.9967726"><time>2026-06-14T18:17:28Z</time></trkpt>
      <trkpt lat="40.7527418" lon="-73.9968169"><time>2026-06-14T18:17:30Z</time><name>right bowl bottom - 9th Avenue / West 33rd Street</name></trkpt>
      <trkpt lat="40.7527072" lon="-73.9967348"><time>2026-06-14T18:17:32Z</time></trkpt>
      <trkpt lat="40.7526727" lon="-73.9966527"><time>2026-06-14T18:17:33Z</time></trkpt>
      <trkpt lat="40.7526381" lon="-73.9965705"><time>2026-06-14T18:17:35Z</time></trkpt>
      <trkpt lat="40.7526035" lon="-73.9964884"><time>2026-06-14T18:17:37Z</time></trkpt>
      <trkpt lat="40.7525690" lon="-73.9964063"><time>2026-06-14T18:17:39Z</time></trkpt>
      <trkpt lat="40.7525344" lon="-73.9963242"><time>2026-06-14T18:17:40Z</time></trkpt>
      <trkpt lat="40.7524998" lon="-73.9962421"><time>2026-06-14T18:17:42Z</time></trkpt>
      <trkpt lat="40.7524653" lon="-73.9961600"><time>2026-06-14T18:17:44Z</time></trkpt>
      <trkpt lat="40.7524307" lon="-73.9960778"><time>2026-06-14T18:17:46Z</time></trkpt>
      <trkpt lat="40.7523961" lon="-73.9959957"><time>2026-06-14T18:17:47Z</time></trkpt>
      <trkpt lat="40.7523616" lon="-73.9959136"><time>2026-06-14T18:17:49Z</time></trkpt>
      <trkpt lat="40.7523270" lon="-73.9958315"><time>2026-06-14T18:17:51Z</time></trkpt>
      <trkpt lat="40.7522924" lon="-73.9957494"><time>2026-06-14T18:17:53Z</time></trkpt>
      <trkpt lat="40.7522579" lon="-73.9956673"><time>2026-06-14T18:17:54Z</time></trkpt>
      <trkpt lat="40.7522233" lon="-73.9955851"><time>2026-06-14T18:17:56Z</time></trkpt>
      <trkpt lat="40.7521887" lon="-73.9955030"><time>2026-06-14T18:17:58Z</time></trkpt>
      <trkpt lat="40.7521542" lon="-73.9954209"><time>2026-06-14T18:18:00Z</time></trkpt>
      <trkpt lat="40.7521196" lon="-73.9953388"><time>2026-06-14T18:18:01Z</time></trkpt>
      <trkpt lat="40.7520851" lon="-73.9952567"><time>2026-06-14T18:18:03Z</time></trkpt>
      <trkpt lat="40.7520505" lon="-73.9951746"><time>2026-06-14T18:18:05Z</time></trkpt>
      <trkpt lat="40.7520159" lon="-73.9950924"><time>2026-06-14T18:18:07Z</time></trkpt>
      <trkpt lat="40.7519814" lon="-73.9950103"><time>2026-06-14T18:18:09Z</time></trkpt>
      <trkpt lat="40.7519468" lon="-73.9949282"><time>2026-06-14T18:18:10Z</time></trkpt>
      <trkpt lat="40.7519122" lon="-73.9948461"><time>2026-06-14T18:18:12Z</time></trkpt>
      <trkpt lat="40.7518777" lon="-73.9947640"><time>2026-06-14T18:18:14Z</time></trkpt>
      <trkpt lat="40.7518431" lon="-73.9946819"><time>2026-06-14T18:18:16Z</time></trkpt>
      <trkpt lat="40.7518085" lon="-73.9945997"><time>2026-06-14T18:18:17Z</time></trkpt>
      <trkpt lat="40.7517740" lon="-73.9945176"><time>2026-06-14T18:18:19Z</time></trkpt>
      <trkpt lat="40.7517394" lon="-73.9944355"><time>2026-06-14T18:18:21Z</time></trkpt>
      <trkpt lat="40.7517048" lon="-73.9943534"><time>2026-06-14T18:18:23Z</time></trkpt>
      <trkpt lat="40.7516703" lon="-73.9942713"><time>2026-06-14T18:18:24Z</time></trkpt>
      <trkpt lat="40.7516357" lon="-73.9941892"><time>2026-06-14T18:18:26Z</time></trkpt>
      <trkpt lat="40.7516011" lon="-73.9941070"><time>2026-06-14T18:18:28Z</time></trkpt>
      <trkpt lat="40.7515666" lon="-73.9940249"><time>2026-06-14T18:18:30Z</time></trkpt>
      <trkpt lat="40.7515320" lon="-73.9939428"><time>2026-06-14T18:18:31Z</time><name>cup neck right - 8th Avenue / West 33rd Street</name></trkpt>
      <trkpt lat="40.7514695" lon="-73.9939883"><time>2026-06-14T18:18:33Z</time></trkpt>
      <trkpt lat="40.7514069" lon="-73.9940339"><time>2026-06-14T18:18:35Z</time></trkpt>
      <trkpt lat="40.7513444" lon="-73.9940794"><time>2026-06-14T18:18:37Z</time></trkpt>
      <trkpt lat="40.7512818" lon="-73.9941250"><time>2026-06-14T18:18:38Z</time></trkpt>
      <trkpt lat="40.7512193" lon="-73.9941705"><time>2026-06-14T18:18:40Z</time></trkpt>
      <trkpt lat="40.7511567" lon="-73.9942161"><time>2026-06-14T18:18:42Z</time></trkpt>
      <trkpt lat="40.7510942" lon="-73.9942616"><time>2026-06-14T18:18:44Z</time></trkpt>
      <trkpt lat="40.7510317" lon="-73.9943071"><time>2026-06-14T18:18:46Z</time></trkpt>
      <trkpt lat="40.7509691" lon="-73.9943527"><time>2026-06-14T18:18:47Z</time></trkpt>
      <trkpt lat="40.7509066" lon="-73.9943982"><time>2026-06-14T18:18:49Z</time></trkpt>
      <trkpt lat="40.7508440" lon="-73.9944438"><time>2026-06-14T18:18:51Z</time></trkpt>
      <trkpt lat="40.7507815" lon="-73.9944893"><time>2026-06-14T18:18:53Z</time></trkpt>
      <trkpt lat="40.7507189" lon="-73.9945348"><time>2026-06-14T18:18:54Z</time></trkpt>
      <trkpt lat="40.7506564" lon="-73.9945804"><time>2026-06-14T18:18:56Z</time></trkpt>
      <trkpt lat="40.7505938" lon="-73.9946259"><time>2026-06-14T18:18:58Z</time></trkpt>
      <trkpt lat="40.7505313" lon="-73.9946715"><time>2026-06-14T18:19:00Z</time></trkpt>
      <trkpt lat="40.7504688" lon="-73.9947170"><time>2026-06-14T18:19:01Z</time></trkpt>
      <trkpt lat="40.7504062" lon="-73.9947626"><time>2026-06-14T18:19:03Z</time></trkpt>
      <trkpt lat="40.7503437" lon="-73.9948081"><time>2026-06-14T18:19:05Z</time></trkpt>
      <trkpt lat="40.7502811" lon="-73.9948536"><time>2026-06-14T18:19:07Z</time></trkpt>
      <trkpt lat="40.7502186" lon="-73.9948992"><time>2026-06-14T18:19:08Z</time></trkpt>
      <trkpt lat="40.7501560" lon="-73.9949447"><time>2026-06-14T18:19:10Z</time></trkpt>
      <trkpt lat="40.7500935" lon="-73.9949903"><time>2026-06-14T18:19:12Z</time></trkpt>
      <trkpt lat="40.7500310" lon="-73.9950358"><time>2026-06-14T18:19:14Z</time></trkpt>
      <trkpt lat="40.7499684" lon="-73.9950814"><time>2026-06-14T18:19:16Z</time></trkpt>
      <trkpt lat="40.7499059" lon="-73.9951269"><time>2026-06-14T18:19:17Z</time></trkpt>
      <trkpt lat="40.7498433" lon="-73.9951724"><time>2026-06-14T18:19:19Z</time></trkpt>
      <trkpt lat="40.7497808" lon="-73.9952180"><time>2026-06-14T18:19:21Z</time></trkpt>
      <trkpt lat="40.7497182" lon="-73.9952635"><time>2026-06-14T18:19:23Z</time></trkpt>
      <trkpt lat="40.7496557" lon="-73.9953091"><time>2026-06-14T18:19:24Z</time></trkpt>
      <trkpt lat="40.7495932" lon="-73.9953546"><time>2026-06-14T18:19:26Z</time></trkpt>
      <trkpt lat="40.7495306" lon="-73.9954001"><time>2026-06-14T18:19:28Z</time></trkpt>
      <trkpt lat="40.7494681" lon="-73.9954457"><time>2026-06-14T18:19:30Z</time></trkpt>
      <trkpt lat="40.7494055" lon="-73.9954912"><time>2026-06-14T18:19:31Z</time></trkpt>
      <trkpt lat="40.7493430" lon="-73.9955368"><time>2026-06-14T18:19:33Z</time></trkpt>
      <trkpt lat="40.7492804" lon="-73.9955823"><time>2026-06-14T18:19:35Z</time></trkpt>
      <trkpt lat="40.7492179" lon="-73.9956279"><time>2026-06-14T18:19:37Z</time></trkpt>
      <trkpt lat="40.7491553" lon="-73.9956734"><time>2026-06-14T18:19:38Z</time></trkpt>
      <trkpt lat="40.7490928" lon="-73.9957189"><time>2026-06-14T18:19:40Z</time></trkpt>
      <trkpt lat="40.7490303" lon="-73.9957645"><time>2026-06-14T18:19:42Z</time></trkpt>
      <trkpt lat="40.7489677" lon="-73.9958100"><time>2026-06-14T18:19:44Z</time></trkpt>
      <trkpt lat="40.7489052" lon="-73.9958556"><time>2026-06-14T18:19:46Z</time></trkpt>
      <trkpt lat="40.7488426" lon="-73.9959011"><time>2026-06-14T18:19:47Z</time></trkpt>
      <trkpt lat="40.7487801" lon="-73.9959466"><time>2026-06-14T18:19:49Z</time></trkpt>
      <trkpt lat="40.7487175" lon="-73.9959922"><time>2026-06-14T18:19:51Z</time></trkpt>
      <trkpt lat="40.7486550" lon="-73.9960377"><time>2026-06-14T18:19:53Z</time></trkpt>
      <trkpt lat="40.7485925" lon="-73.9960833"><time>2026-06-14T18:19:54Z</time></trkpt>
      <trkpt lat="40.7485299" lon="-73.9961288"><time>2026-06-14T18:19:56Z</time></trkpt>
      <trkpt lat="40.7484674" lon="-73.9961744"><time>2026-06-14T18:19:58Z</time></trkpt>
      <trkpt lat="40.7484048" lon="-73.9962199"><time>2026-06-14T18:20:00Z</time></trkpt>
      <trkpt lat="40.7483423" lon="-73.9962654"><time>2026-06-14T18:20:01Z</time></trkpt>
      <trkpt lat="40.7482797" lon="-73.9963110"><time>2026-06-14T18:20:03Z</time></trkpt>
      <trkpt lat="40.7482172" lon="-73.9963565"><time>2026-06-14T18:20:05Z</time></trkpt>
      <trkpt lat="40.7481547" lon="-73.9964021"><time>2026-06-14T18:20:07Z</time></trkpt>
      <trkpt lat="40.7480921" lon="-73.9964476"><time>2026-06-14T18:20:08Z</time></trkpt>
      <trkpt lat="40.7480296" lon="-73.9964932"><time>2026-06-14T18:20:10Z</time></trkpt>
      <trkpt lat="40.7479670" lon="-73.9965387"><time>2026-06-14T18:20:12Z</time></trkpt>
      <trkpt lat="40.7479045" lon="-73.9965842"><time>2026-06-14T18:20:14Z</time></trkpt>
      <trkpt lat="40.7478419" lon="-73.9966298"><time>2026-06-14T18:20:16Z</time></trkpt>
      <trkpt lat="40.7477794" lon="-73.9966753"><time>2026-06-14T18:20:17Z</time></trkpt>
      <trkpt lat="40.7477168" lon="-73.9967209"><time>2026-06-14T18:20:19Z</time></trkpt>
      <trkpt lat="40.7476543" lon="-73.9967664"><time>2026-06-14T18:20:21Z</time></trkpt>
      <trkpt lat="40.7475918" lon="-73.9968119"><time>2026-06-14T18:20:23Z</time></trkpt>
      <trkpt lat="40.7475292" lon="-73.9968575"><time>2026-06-14T18:20:24Z</time></trkpt>
      <trkpt lat="40.7474667" lon="-73.9969030"><time>2026-06-14T18:20:26Z</time></trkpt>
      <trkpt lat="40.7474041" lon="-73.9969486"><time>2026-06-14T18:20:28Z</time></trkpt>
      <trkpt lat="40.7473416" lon="-73.9969941"><time>2026-06-14T18:20:30Z</time></trkpt>
      <trkpt lat="40.7472790" lon="-73.9970397"><time>2026-06-14T18:20:31Z</time></trkpt>
      <trkpt lat="40.7472165" lon="-73.9970852"><time>2026-06-14T18:20:33Z</time><name>long stem right edge - 8th Avenue / West 26th Street</name></trkpt>
      <trkpt lat="40.7472512" lon="-73.9971673"><time>2026-06-14T18:20:35Z</time></trkpt>
      <trkpt lat="40.7472858" lon="-73.9972493"><time>2026-06-14T18:20:37Z</time></trkpt>
      <trkpt lat="40.7473205" lon="-73.9973314"><time>2026-06-14T18:20:38Z</time></trkpt>
      <trkpt lat="40.7473552" lon="-73.9974134"><time>2026-06-14T18:20:40Z</time></trkpt>
      <trkpt lat="40.7473898" lon="-73.9974955"><time>2026-06-14T18:20:42Z</time></trkpt>
      <trkpt lat="40.7474245" lon="-73.9975775"><time>2026-06-14T18:20:44Z</time></trkpt>
      <trkpt lat="40.7474592" lon="-73.9976596"><time>2026-06-14T18:20:45Z</time></trkpt>
      <trkpt lat="40.7474938" lon="-73.9977416"><time>2026-06-14T18:20:47Z</time></trkpt>
      <trkpt lat="40.7475285" lon="-73.9978237"><time>2026-06-14T18:20:49Z</time></trkpt>
      <trkpt lat="40.7475632" lon="-73.9979057"><time>2026-06-14T18:20:51Z</time></trkpt>
      <trkpt lat="40.7475979" lon="-73.9979878"><time>2026-06-14T18:20:53Z</time></trkpt>
      <trkpt lat="40.7476325" lon="-73.9980699"><time>2026-06-14T18:20:54Z</time></trkpt>
      <trkpt lat="40.7476672" lon="-73.9981519"><time>2026-06-14T18:20:56Z</time></trkpt>
      <trkpt lat="40.7477019" lon="-73.9982340"><time>2026-06-14T18:20:58Z</time></trkpt>
      <trkpt lat="40.7477365" lon="-73.9983160"><time>2026-06-14T18:21:00Z</time></trkpt>
      <trkpt lat="40.7477712" lon="-73.9983981"><time>2026-06-14T18:21:01Z</time></trkpt>
      <trkpt lat="40.7478059" lon="-73.9984801"><time>2026-06-14T18:21:03Z</time></trkpt>
      <trkpt lat="40.7478405" lon="-73.9985622"><time>2026-06-14T18:21:05Z</time></trkpt>
      <trkpt lat="40.7478752" lon="-73.9986442"><time>2026-06-14T18:21:07Z</time></trkpt>
      <trkpt lat="40.7479099" lon="-73.9987263"><time>2026-06-14T18:21:08Z</time></trkpt>
      <trkpt lat="40.7479445" lon="-73.9988083"><time>2026-06-14T18:21:10Z</time></trkpt>
      <trkpt lat="40.7479792" lon="-73.9988904"><time>2026-06-14T18:21:12Z</time></trkpt>
      <trkpt lat="40.7480139" lon="-73.9989724"><time>2026-06-14T18:21:14Z</time></trkpt>
      <trkpt lat="40.7480485" lon="-73.9990545"><time>2026-06-14T18:21:15Z</time></trkpt>
      <trkpt lat="40.7480832" lon="-73.9991366"><time>2026-06-14T18:21:17Z</time></trkpt>
      <trkpt lat="40.7481179" lon="-73.9992186"><time>2026-06-14T18:21:19Z</time></trkpt>
      <trkpt lat="40.7481526" lon="-73.9993007"><time>2026-06-14T18:21:21Z</time></trkpt>
      <trkpt lat="40.7481872" lon="-73.9993827"><time>2026-06-14T18:21:22Z</time></trkpt>
      <trkpt lat="40.7482219" lon="-73.9994648"><time>2026-06-14T18:21:24Z</time></trkpt>
      <trkpt lat="40.7482566" lon="-73.9995468"><time>2026-06-14T18:21:26Z</time></trkpt>
      <trkpt lat="40.7482912" lon="-73.9996289"><time>2026-06-14T18:21:28Z</time></trkpt>
      <trkpt lat="40.7483259" lon="-73.9997109"><time>2026-06-14T18:21:29Z</time></trkpt>
      <trkpt lat="40.7483606" lon="-73.9997930"><time>2026-06-14T18:21:31Z</time></trkpt>
      <trkpt lat="40.7483952" lon="-73.9998750"><time>2026-06-14T18:21:33Z</time></trkpt>
      <trkpt lat="40.7484299" lon="-73.9999571"><time>2026-06-14T18:21:35Z</time><name>base right out - 9th Avenue / West 26th Street</name></trkpt>
      <trkpt lat="40.7483683" lon="-74.0000020"><time>2026-06-14T18:21:36Z</time></trkpt>
      <trkpt lat="40.7483068" lon="-74.0000469"><time>2026-06-14T18:21:38Z</time></trkpt>
      <trkpt lat="40.7482452" lon="-74.0000919"><time>2026-06-14T18:21:40Z</time></trkpt>
      <trkpt lat="40.7481836" lon="-74.0001368"><time>2026-06-14T18:21:42Z</time></trkpt>
      <trkpt lat="40.7481220" lon="-74.0001817"><time>2026-06-14T18:21:43Z</time></trkpt>
      <trkpt lat="40.7480605" lon="-74.0002266"><time>2026-06-14T18:21:45Z</time></trkpt>
      <trkpt lat="40.7479989" lon="-74.0002716"><time>2026-06-14T18:21:47Z</time></trkpt>
      <trkpt lat="40.7479373" lon="-74.0003165"><time>2026-06-14T18:21:49Z</time></trkpt>
      <trkpt lat="40.7478758" lon="-74.0003614"><time>2026-06-14T18:21:50Z</time></trkpt>
      <trkpt lat="40.7478142" lon="-74.0004063"><time>2026-06-14T18:21:52Z</time></trkpt>
      <trkpt lat="40.7477526" lon="-74.0004512"><time>2026-06-14T18:21:54Z</time></trkpt>
      <trkpt lat="40.7476910" lon="-74.0004962"><time>2026-06-14T18:21:56Z</time></trkpt>
      <trkpt lat="40.7476295" lon="-74.0005411"><time>2026-06-14T18:21:57Z</time></trkpt>
      <trkpt lat="40.7475679" lon="-74.0005860"><time>2026-06-14T18:21:59Z</time></trkpt>
      <trkpt lat="40.7475063" lon="-74.0006309"><time>2026-06-14T18:22:01Z</time></trkpt>
      <trkpt lat="40.7474448" lon="-74.0006759"><time>2026-06-14T18:22:03Z</time></trkpt>
      <trkpt lat="40.7473832" lon="-74.0007208"><time>2026-06-14T18:22:04Z</time></trkpt>
      <trkpt lat="40.7473216" lon="-74.0007657"><time>2026-06-14T18:22:06Z</time></trkpt>
      <trkpt lat="40.7472601" lon="-74.0008106"><time>2026-06-14T18:22:08Z</time></trkpt>
      <trkpt lat="40.7471985" lon="-74.0008556"><time>2026-06-14T18:22:09Z</time></trkpt>
      <trkpt lat="40.7471369" lon="-74.0009005"><time>2026-06-14T18:22:11Z</time></trkpt>
      <trkpt lat="40.7470753" lon="-74.0009454"><time>2026-06-14T18:22:13Z</time></trkpt>
      <trkpt lat="40.7470138" lon="-74.0009903"><time>2026-06-14T18:22:15Z</time></trkpt>
      <trkpt lat="40.7469522" lon="-74.0010352"><time>2026-06-14T18:22:16Z</time></trkpt>
      <trkpt lat="40.7468906" lon="-74.0010802"><time>2026-06-14T18:22:18Z</time></trkpt>
      <trkpt lat="40.7468291" lon="-74.0011251"><time>2026-06-14T18:22:20Z</time></trkpt>
      <trkpt lat="40.7467675" lon="-74.0011700"><time>2026-06-14T18:22:22Z</time></trkpt>
      <trkpt lat="40.7467059" lon="-74.0012149"><time>2026-06-14T18:22:23Z</time></trkpt>
      <trkpt lat="40.7466443" lon="-74.0012599"><time>2026-06-14T18:22:25Z</time></trkpt>
      <trkpt lat="40.7465828" lon="-74.0013048"><time>2026-06-14T18:22:27Z</time></trkpt>
      <trkpt lat="40.7465212" lon="-74.0013497"><time>2026-06-14T18:22:29Z</time><name>base right down - 9th Avenue / West 23rd Street</name></trkpt>
      <trkpt lat="40.7464862" lon="-74.0012669"><time>2026-06-14T18:22:30Z</time></trkpt>
      <trkpt lat="40.7464512" lon="-74.0011841"><time>2026-06-14T18:22:32Z</time></trkpt>
      <trkpt lat="40.7464162" lon="-74.0011014"><time>2026-06-14T18:22:34Z</time></trkpt>
      <trkpt lat="40.7463812" lon="-74.0010186"><time>2026-06-14T18:22:36Z</time></trkpt>
      <trkpt lat="40.7463462" lon="-74.0009358"><time>2026-06-14T18:22:37Z</time></trkpt>
      <trkpt lat="40.7463112" lon="-74.0008530"><time>2026-06-14T18:22:39Z</time></trkpt>
      <trkpt lat="40.7462762" lon="-74.0007703"><time>2026-06-14T18:22:41Z</time></trkpt>
      <trkpt lat="40.7462412" lon="-74.0006875"><time>2026-06-14T18:22:43Z</time></trkpt>
      <trkpt lat="40.7462062" lon="-74.0006047"><time>2026-06-14T18:22:45Z</time></trkpt>
      <trkpt lat="40.7461712" lon="-74.0005219"><time>2026-06-14T18:22:46Z</time></trkpt>
      <trkpt lat="40.7461362" lon="-74.0004392"><time>2026-06-14T18:22:48Z</time></trkpt>
      <trkpt lat="40.7461013" lon="-74.0003564"><time>2026-06-14T18:22:50Z</time></trkpt>
      <trkpt lat="40.7460663" lon="-74.0002736"><time>2026-06-14T18:22:52Z</time></trkpt>
      <trkpt lat="40.7460313" lon="-74.0001908"><time>2026-06-14T18:22:53Z</time></trkpt>
      <trkpt lat="40.7459963" lon="-74.0001081"><time>2026-06-14T18:22:55Z</time></trkpt>
      <trkpt lat="40.7459613" lon="-74.0000253"><time>2026-06-14T18:22:57Z</time></trkpt>
      <trkpt lat="40.7459263" lon="-73.9999425"><time>2026-06-14T18:22:59Z</time></trkpt>
      <trkpt lat="40.7458913" lon="-73.9998597"><time>2026-06-14T18:23:01Z</time></trkpt>
      <trkpt lat="40.7458563" lon="-73.9997770"><time>2026-06-14T18:23:02Z</time></trkpt>
      <trkpt lat="40.7458213" lon="-73.9996942"><time>2026-06-14T18:23:04Z</time></trkpt>
      <trkpt lat="40.7457863" lon="-73.9996114"><time>2026-06-14T18:23:06Z</time></trkpt>
      <trkpt lat="40.7457513" lon="-73.9995286"><time>2026-06-14T18:23:08Z</time></trkpt>
      <trkpt lat="40.7457163" lon="-73.9994459"><time>2026-06-14T18:23:09Z</time></trkpt>
      <trkpt lat="40.7456813" lon="-73.9993631"><time>2026-06-14T18:23:11Z</time></trkpt>
      <trkpt lat="40.7456463" lon="-73.9992803"><time>2026-06-14T18:23:13Z</time></trkpt>
      <trkpt lat="40.7456113" lon="-73.9991975"><time>2026-06-14T18:23:15Z</time></trkpt>
      <trkpt lat="40.7455763" lon="-73.9991148"><time>2026-06-14T18:23:17Z</time></trkpt>
      <trkpt lat="40.7455413" lon="-73.9990320"><time>2026-06-14T18:23:18Z</time></trkpt>
      <trkpt lat="40.7455063" lon="-73.9989492"><time>2026-06-14T18:23:20Z</time></trkpt>
      <trkpt lat="40.7454713" lon="-73.9988664"><time>2026-06-14T18:23:22Z</time></trkpt>
      <trkpt lat="40.7454363" lon="-73.9987837"><time>2026-06-14T18:23:24Z</time></trkpt>
      <trkpt lat="40.7454013" lon="-73.9987009"><time>2026-06-14T18:23:25Z</time></trkpt>
      <trkpt lat="40.7453663" lon="-73.9986181"><time>2026-06-14T18:23:27Z</time></trkpt>
      <trkpt lat="40.7453313" lon="-73.9985353"><time>2026-06-14T18:23:29Z</time></trkpt>
      <trkpt lat="40.7452964" lon="-73.9984526"><time>2026-06-14T18:23:31Z</time></trkpt>
      <trkpt lat="40.7452614" lon="-73.9983698"><time>2026-06-14T18:23:32Z</time></trkpt>
      <trkpt lat="40.7452264" lon="-73.9982870"><time>2026-06-14T18:23:34Z</time></trkpt>
      <trkpt lat="40.7451914" lon="-73.9982042"><time>2026-06-14T18:23:36Z</time></trkpt>
      <trkpt lat="40.7451564" lon="-73.9981215"><time>2026-06-14T18:23:38Z</time></trkpt>
      <trkpt lat="40.7451214" lon="-73.9980387"><time>2026-06-14T18:23:40Z</time></trkpt>
      <trkpt lat="40.7450864" lon="-73.9979559"><time>2026-06-14T18:23:41Z</time></trkpt>
      <trkpt lat="40.7450514" lon="-73.9978731"><time>2026-06-14T18:23:43Z</time></trkpt>
      <trkpt lat="40.7450164" lon="-73.9977904"><time>2026-06-14T18:23:45Z</time></trkpt>
      <trkpt lat="40.7449814" lon="-73.9977076"><time>2026-06-14T18:23:47Z</time></trkpt>
      <trkpt lat="40.7449464" lon="-73.9976248"><time>2026-06-14T18:23:48Z</time></trkpt>
      <trkpt lat="40.7449114" lon="-73.9975420"><time>2026-06-14T18:23:50Z</time></trkpt>
      <trkpt lat="40.7448764" lon="-73.9974593"><time>2026-06-14T18:23:52Z</time></trkpt>
      <trkpt lat="40.7448414" lon="-73.9973765"><time>2026-06-14T18:23:54Z</time></trkpt>
      <trkpt lat="40.7448064" lon="-73.9972937"><time>2026-06-14T18:23:56Z</time></trkpt>
      <trkpt lat="40.7447714" lon="-73.9972109"><time>2026-06-14T18:23:57Z</time></trkpt>
      <trkpt lat="40.7447364" lon="-73.9971282"><time>2026-06-14T18:23:59Z</time></trkpt>
      <trkpt lat="40.7447014" lon="-73.9970454"><time>2026-06-14T18:24:01Z</time></trkpt>
      <trkpt lat="40.7446664" lon="-73.9969626"><time>2026-06-14T18:24:03Z</time></trkpt>
      <trkpt lat="40.7446314" lon="-73.9968798"><time>2026-06-14T18:24:04Z</time></trkpt>
      <trkpt lat="40.7445964" lon="-73.9967971"><time>2026-06-14T18:24:06Z</time></trkpt>
      <trkpt lat="40.7445614" lon="-73.9967143"><time>2026-06-14T18:24:08Z</time></trkpt>
      <trkpt lat="40.7445264" lon="-73.9966315"><time>2026-06-14T18:24:10Z</time></trkpt>
      <trkpt lat="40.7444915" lon="-73.9965487"><time>2026-06-14T18:24:12Z</time></trkpt>
      <trkpt lat="40.7444565" lon="-73.9964660"><time>2026-06-14T18:24:13Z</time></trkpt>
      <trkpt lat="40.7444215" lon="-73.9963832"><time>2026-06-14T18:24:15Z</time></trkpt>
      <trkpt lat="40.7443865" lon="-73.9963004"><time>2026-06-14T18:24:17Z</time></trkpt>
      <trkpt lat="40.7443515" lon="-73.9962176"><time>2026-06-14T18:24:19Z</time></trkpt>
      <trkpt lat="40.7443165" lon="-73.9961349"><time>2026-06-14T18:24:20Z</time></trkpt>
      <trkpt lat="40.7442815" lon="-73.9960521"><time>2026-06-14T18:24:22Z</time></trkpt>
      <trkpt lat="40.7442465" lon="-73.9959693"><time>2026-06-14T18:24:24Z</time></trkpt>
      <trkpt lat="40.7442115" lon="-73.9958865"><time>2026-06-14T18:24:26Z</time></trkpt>
      <trkpt lat="40.7441765" lon="-73.9958038"><time>2026-06-14T18:24:28Z</time></trkpt>
      <trkpt lat="40.7441415" lon="-73.9957210"><time>2026-06-14T18:24:29Z</time></trkpt>
      <trkpt lat="40.7441065" lon="-73.9956382"><time>2026-06-14T18:24:31Z</time><name>close bottom center - 7th Avenue / West 23rd Street</name></trkpt>
    </trkseg>
  </trk>
</gpx>
